{"type":"FeatureCollection","features":[{"type":"Feature","properties":{"name":"Mitte","nr":"1"},"geometry":{"type":"Polygon","coordinates":[[[7.60652,51.9735],[7.60607,51.97377],[7.60571,51.97399],[7.60569,51.97401],[7.60515,51.97432],[7.60486,51.97449],[7.60415,51.97492],[7.60402,51.975],[7.60366,51.97521],[7.60297,51.97563],[7.60232,51.97602],[7.60181,51.97632],[7.6014,51.97656],[7.60054,51.97707],[7.59941,51.97772],[7.59864,51.97818],[7.5979,51.97861],[7.59586,51.97981],[7.59389,51.98097],[7.59335,51.98128],[7.59126,51.98252],[7.58992,51.9833],[7.59241,51.98445],[7.59255,51.98449],[7.59367,51.98479],[7.59421,51.98494],[7.59601,51.9853],[7.59605,51.98531],[7.59731,51.98552],[7.59822,51.98564],[7.59905,51.98575],[7.5998,51.98578],[7.6035,51.98594],[7.60643,51.98604],[7.60721,51.98612],[7.60778,51.98623],[7.61028,51.98669],[7.61144,51.98692],[7.61529,51.98743],[7.6172,51.98768],[7.62153,51.98828],[7.62556,51.98883],[7.62799,51.9892],[7.62947,51.98936],[7.62991,51.98938],[7.63046,51.98941],[7.63068,51.98941],[7.63187,51.98939],[7.63274,51.9893],[7.63341,51.98918],[7.63425,51.98902],[7.63521,51.98879],[7.63593,51.98859],[7.63662,51.98831],[7.6378,51.9877],[7.63878,51.98724],[7.64021,51.98664],[7.64154,51.98619],[7.64224,51.98597],[7.64333,51.98571],[7.64437,51.98552],[7.64483,51.98544],[7.64568,51.98535],[7.64696,51.98524],[7.6476,51.98525],[7.64822,51.98528],[7.64951,51.98543],[7.65152,51.98573],[7.65249,51.98592],[7.65383,51.98619],[7.65491,51.98644],[7.65589,51.9867],[7.65668,51.98692],[7.65694,51.98695],[7.65767,51.98703],[7.66012,51.98727],[7.66014,51.9871],[7.66024,51.98617],[7.66046,51.98427],[7.66072,51.98299],[7.66079,51.98266],[7.66094,51.98194],[7.66102,51.98157],[7.66141,51.97986],[7.66183,51.978],[7.66192,51.97759],[7.66203,51.9771],[7.66208,51.97687],[7.66222,51.97629],[7.66242,51.9754],[7.66245,51.97526],[7.66249,51.97511],[7.66267,51.97443],[7.66281,51.97392],[7.66283,51.97384],[7.66291,51.97354],[7.66292,51.9735],[7.66299,51.97323],[7.66331,51.97202],[7.66342,51.97163],[7.66352,51.97091],[7.66358,51.97058],[7.66365,51.97005],[7.66385,51.96876],[7.66392,51.96826],[7.66395,51.96807],[7.6642,51.96648],[7.66422,51.96634],[7.66435,51.96574],[7.66437,51.96565],[7.66454,51.96488],[7.66462,51.96432],[7.66478,51.96321],[7.66476,51.96285],[7.66475,51.96259],[7.66472,51.96212],[7.66447,51.96151],[7.66429,51.96107],[7.66419,51.96083],[7.66415,51.96073],[7.66318,51.95967],[7.66304,51.95952],[7.66292,51.95943],[7.66288,51.95941],[7.66115,51.95822],[7.66076,51.95793],[7.66057,51.95782],[7.66001,51.95744],[7.65758,51.95585],[7.65691,51.95541],[7.65661,51.95521],[7.65644,51.9551],[7.65569,51.95462],[7.65546,51.95447],[7.65535,51.9544],[7.655,51.95418],[7.65477,51.95402],[7.65449,51.95385],[7.65364,51.9533],[7.65266,51.95266],[7.65231,51.95244],[7.65151,51.95188],[7.65066,51.9513],[7.65062,51.95127],[7.64961,51.95057],[7.64824,51.94963],[7.64726,51.94896],[7.64615,51.94816],[7.64595,51.94803],[7.64536,51.94757],[7.64519,51.94743],[7.64509,51.94735],[7.64473,51.94707],[7.644,51.94646],[7.64388,51.94635],[7.6435,51.94602],[7.64279,51.94539],[7.64184,51.9445],[7.64128,51.94399],[7.64032,51.94301],[7.6396,51.94207],[7.63914,51.94146],[7.63874,51.94061],[7.63848,51.94007],[7.63841,51.93985],[7.63826,51.93937],[7.63788,51.93923],[7.63747,51.93908],[7.63719,51.93896],[7.63689,51.93885],[7.63647,51.9387],[7.63587,51.9385],[7.63569,51.93846],[7.63544,51.93839],[7.63503,51.93828],[7.63446,51.93817],[7.63263,51.93785],[7.63211,51.937],[7.63188,51.93672],[7.63157,51.93637],[7.63095,51.93574],[7.63053,51.93538],[7.63004,51.93497],[7.62907,51.93432],[7.62798,51.93374],[7.62785,51.93368],[7.62699,51.93331],[7.62625,51.93299],[7.62588,51.93282],[7.62565,51.93271],[7.62483,51.93228],[7.6241,51.9319],[7.62279,51.93112],[7.6221,51.93071],[7.62146,51.93032],[7.62075,51.9299],[7.61947,51.9291],[7.61933,51.92902],[7.6187,51.92863],[7.61717,51.92769],[7.61579,51.92683],[7.6152,51.92647],[7.61487,51.92626],[7.61437,51.92594],[7.61425,51.92587],[7.61371,51.92554],[7.61347,51.92539],[7.61278,51.92497],[7.61241,51.92473],[7.61199,51.92447],[7.61102,51.92379],[7.61024,51.92312],[7.60969,51.92257],[7.60957,51.92243],[7.6091,51.9219],[7.60859,51.92119],[7.60832,51.92077],[7.60825,51.9206],[7.60776,51.92074],[7.60727,51.92091],[7.60659,51.92114],[7.60445,51.92185],[7.60375,51.92209],[7.60361,51.92213],[7.60348,51.92218],[7.60318,51.92227],[7.60319,51.9223],[7.60351,51.92307],[7.60364,51.92338],[7.60387,51.92391],[7.60399,51.92419],[7.6034,51.92423],[7.60303,51.92426],[7.60228,51.92432],[7.60165,51.92436],[7.60092,51.92441],[7.60062,51.92443],[7.5994,51.92452],[7.59913,51.92455],[7.59873,51.9246],[7.5987,51.9245],[7.59775,51.92456],[7.59659,51.92462],[7.59625,51.92463],[7.59584,51.92468],[7.59529,51.92476],[7.59473,51.92487],[7.59489,51.92511],[7.59545,51.92607],[7.59554,51.92622],[7.59562,51.92636],[7.59588,51.92683],[7.5963,51.92758],[7.59632,51.92761],[7.59634,51.92765],[7.59664,51.92818],[7.59694,51.9287],[7.59694,51.92871],[7.5972,51.92917],[7.59742,51.92955],[7.59746,51.92962],[7.59757,51.92978],[7.598,51.93044],[7.59838,51.93102],[7.59857,51.9313],[7.59896,51.93186],[7.59909,51.93204],[7.5994,51.93246],[7.59977,51.93289],[7.59994,51.9331],[7.60015,51.93334],[7.60078,51.93404],[7.60126,51.93454],[7.60142,51.9347],[7.60152,51.9348],[7.60195,51.93517],[7.60173,51.93521],[7.60148,51.93524],[7.60124,51.93524],[7.60094,51.93516],[7.60093,51.93516],[7.60069,51.93503],[7.60054,51.93494],[7.60029,51.93481],[7.60015,51.9348],[7.59999,51.93484],[7.59934,51.93516],[7.59903,51.93531],[7.59884,51.9354],[7.59876,51.93543],[7.59844,51.93558],[7.59816,51.93572],[7.59785,51.93586],[7.5977,51.93593],[7.59746,51.93603],[7.59739,51.93606],[7.5971,51.9362],[7.59687,51.93631],[7.59652,51.93653],[7.59648,51.93657],[7.59605,51.93692],[7.59549,51.93729],[7.59528,51.93743],[7.59516,51.9375],[7.59472,51.93778],[7.59463,51.93784],[7.59416,51.93814],[7.59389,51.93831],[7.59351,51.93856],[7.59271,51.93907],[7.59194,51.93953],[7.59131,51.93994],[7.59188,51.94034],[7.59205,51.94045],[7.59219,51.9405],[7.59318,51.94076],[7.59397,51.94097],[7.59404,51.941],[7.59429,51.94114],[7.59448,51.94124],[7.59452,51.9413],[7.59461,51.9415],[7.59471,51.94174],[7.59474,51.94182],[7.59474,51.94184],[7.59489,51.94217],[7.59506,51.94246],[7.59507,51.94248],[7.59559,51.943],[7.59677,51.94397],[7.59725,51.94437],[7.59849,51.94548],[7.59937,51.94629],[7.59993,51.94685],[7.60041,51.94734],[7.60069,51.94764],[7.60089,51.9479],[7.60112,51.94821],[7.60127,51.94838],[7.6016,51.94862],[7.60189,51.9488],[7.60216,51.94897],[7.60265,51.94926],[7.60369,51.94979],[7.60503,51.95038],[7.60467,51.95065],[7.60456,51.95075],[7.60436,51.95092],[7.6043,51.95096],[7.60402,51.95127],[7.60377,51.9516],[7.60367,51.95177],[7.60349,51.95231],[7.60333,51.9527],[7.60304,51.95331],[7.60287,51.9537],[7.60283,51.95382],[7.60276,51.95403],[7.60269,51.95433],[7.60265,51.95465],[7.60264,51.95484],[7.60264,51.95495],[7.60267,51.95521],[7.60269,51.95534],[7.60274,51.95565],[7.60279,51.95607],[7.6028,51.9565],[7.60279,51.95664],[7.60287,51.95679],[7.60282,51.95737],[7.60282,51.95741],[7.60282,51.95747],[7.60281,51.95758],[7.6028,51.95764],[7.6028,51.95766],[7.60271,51.95832],[7.60269,51.95851],[7.60267,51.95874],[7.60264,51.95904],[7.60257,51.95961],[7.60253,51.9602],[7.60251,51.96056],[7.60249,51.96115],[7.60249,51.96133],[7.60245,51.9617],[7.60241,51.9621],[7.60236,51.96226],[7.60224,51.96267],[7.60202,51.96321],[7.60189,51.96354],[7.60178,51.96381],[7.60175,51.96389],[7.60162,51.96449],[7.60159,51.96466],[7.60158,51.96512],[7.60158,51.96561],[7.6017,51.96628],[7.60172,51.96636],[7.60181,51.96671],[7.602,51.96744],[7.60207,51.96757],[7.60231,51.96808],[7.60271,51.96893],[7.60283,51.96918],[7.60305,51.96958],[7.6031,51.96967],[7.60317,51.96981],[7.60324,51.96992],[7.60325,51.96995],[7.60377,51.97072],[7.60381,51.97078],[7.60426,51.97137],[7.60435,51.97149],[7.60455,51.97175],[7.60468,51.97192],[7.60499,51.97229],[7.60521,51.97254],[7.60566,51.97296],[7.6061,51.97327],[7.60652,51.9735]]]}},{"type":"Feature","properties":{"name":"West","nr":"5"},"geometry":{"type":"Polygon","coordinates":[[[7.55902,52.04321],[7.55925,52.04329],[7.55918,52.04348],[7.55891,52.04403],[7.55967,52.0443],[7.55982,52.04436],[7.56144,52.04485],[7.56216,52.04513],[7.56234,52.04521],[7.56312,52.0455],[7.56313,52.04559],[7.56429,52.04553],[7.56717,52.0454],[7.56986,52.04527],[7.57049,52.04524],[7.57284,52.04521],[7.57421,52.04514],[7.5746,52.04509],[7.57476,52.04505],[7.57495,52.04501],[7.57527,52.04488],[7.57612,52.04436],[7.57636,52.04423],[7.57686,52.04394],[7.5777,52.04345],[7.57822,52.04316],[7.5785,52.043],[7.57857,52.04295],[7.57896,52.04269],[7.57998,52.04219],[7.58045,52.04195],[7.58084,52.04183],[7.58119,52.04171],[7.58194,52.04155],[7.58198,52.04163],[7.58256,52.04151],[7.58457,52.0411],[7.58468,52.04108],[7.58519,52.04099],[7.5853,52.04092],[7.58547,52.04078],[7.58557,52.04065],[7.58606,52.03983],[7.58716,52.03798],[7.5873,52.03776],[7.58748,52.03735],[7.58771,52.03681],[7.58794,52.03647],[7.5884,52.03581],[7.58869,52.03542],[7.58912,52.03481],[7.58944,52.03446],[7.58968,52.03423],[7.5906,52.03334],[7.59159,52.03228],[7.59186,52.03199],[7.59253,52.03126],[7.59282,52.03092],[7.59284,52.03082],[7.59302,52.02999],[7.59325,52.02843],[7.59329,52.02814],[7.59334,52.02768],[7.5934,52.0269],[7.5934,52.02681],[7.59342,52.02654],[7.59342,52.02646],[7.5934,52.02566],[7.59337,52.02503],[7.59334,52.02484],[7.59328,52.02468],[7.5932,52.02455],[7.59287,52.02408],[7.59251,52.02362],[7.59229,52.02331],[7.59186,52.02272],[7.59128,52.02184],[7.59098,52.0214],[7.59082,52.02119],[7.59073,52.02105],[7.5907,52.02093],[7.5907,52.02079],[7.59073,52.02067],[7.59077,52.02056],[7.59082,52.02047],[7.59085,52.02041],[7.59085,52.02034],[7.59084,52.01978],[7.59082,52.01943],[7.59074,52.0189],[7.59069,52.01841],[7.5896,52.01754],[7.58978,52.01577],[7.58987,52.01481],[7.58994,52.01402],[7.59,52.01337],[7.59009,52.01239],[7.59016,52.01194],[7.59034,52.01082],[7.59037,52.01042],[7.59039,52.01028],[7.59045,52.00939],[7.5905,52.00835],[7.59053,52.00798],[7.59067,52.00717],[7.59023,52.00714],[7.58977,52.00711],[7.58944,52.00708],[7.58909,52.00702],[7.58818,52.00681],[7.58738,52.00659],[7.58645,52.00638],[7.58562,52.00623],[7.58414,52.00597],[7.58317,52.00574],[7.58081,52.00517],[7.58034,52.00504],[7.58017,52.00497],[7.57984,52.00482],[7.57949,52.00472],[7.57914,52.00469],[7.57856,52.00465],[7.57824,52.00458],[7.57781,52.00447],[7.57763,52.00442],[7.57692,52.0042],[7.57627,52.00402],[7.57577,52.00389],[7.57533,52.00377],[7.57526,52.00375],[7.57467,52.00356],[7.57416,52.00336],[7.57393,52.00324],[7.57391,52.00319],[7.57404,52.00313],[7.5742,52.00311],[7.57421,52.00305],[7.57397,52.00305],[7.57407,52.00301],[7.57364,52.00302],[7.57332,52.00302],[7.573,52.00304],[7.57268,52.00307],[7.57214,52.00241],[7.57188,52.00206],[7.57117,52.00121],[7.57008,51.99979],[7.56892,51.9983],[7.56784,51.997],[7.56746,51.99657],[7.56708,51.99616],[7.56677,51.99582],[7.56765,51.9954],[7.56807,51.99519],[7.56847,51.995],[7.56888,51.9948],[7.56898,51.99475],[7.56912,51.99469],[7.56927,51.99461],[7.5706,51.99397],[7.57177,51.99341],[7.57183,51.99338],[7.5721,51.99325],[7.57216,51.99322],[7.5725,51.99306],[7.57397,51.99233],[7.57413,51.99225],[7.57475,51.99197],[7.57496,51.99187],[7.5755,51.9916],[7.57585,51.99142],[7.57682,51.99098],[7.57717,51.9908],[7.57752,51.9906],[7.57841,51.99009],[7.57963,51.98937],[7.58042,51.98886],[7.58069,51.9886],[7.58082,51.98837],[7.58083,51.98821],[7.58075,51.98805],[7.58073,51.98802],[7.58099,51.98798],[7.58102,51.98797],[7.58196,51.98772],[7.58293,51.9874],[7.58361,51.98704],[7.58381,51.98692],[7.58398,51.98681],[7.58503,51.98617],[7.58627,51.98544],[7.58714,51.98494],[7.58846,51.98416],[7.58855,51.98411],[7.58858,51.98409],[7.58945,51.98358],[7.58966,51.98345],[7.58992,51.9833],[7.59126,51.98252],[7.59335,51.98128],[7.59389,51.98097],[7.59586,51.97981],[7.5979,51.97861],[7.59864,51.97818],[7.59941,51.97772],[7.60054,51.97707],[7.6014,51.97656],[7.60181,51.97632],[7.60232,51.97602],[7.60297,51.97563],[7.60366,51.97521],[7.60402,51.975],[7.60415,51.97492],[7.60486,51.97449],[7.60515,51.97432],[7.60569,51.97401],[7.60571,51.97399],[7.60607,51.97377],[7.60652,51.9735],[7.6061,51.97327],[7.60566,51.97296],[7.60521,51.97254],[7.60499,51.97229],[7.60468,51.97192],[7.60455,51.97175],[7.60435,51.97149],[7.60426,51.97137],[7.60381,51.97078],[7.60377,51.97072],[7.60325,51.96995],[7.60324,51.96992],[7.60317,51.96981],[7.6031,51.96967],[7.60305,51.96958],[7.60283,51.96918],[7.60271,51.96893],[7.60231,51.96808],[7.60207,51.96757],[7.602,51.96744],[7.60181,51.96671],[7.60172,51.96636],[7.6017,51.96628],[7.60158,51.96561],[7.60158,51.96512],[7.60159,51.96466],[7.60162,51.96449],[7.60175,51.96389],[7.60178,51.96381],[7.60189,51.96354],[7.60202,51.96321],[7.60224,51.96267],[7.60236,51.96226],[7.60241,51.9621],[7.60245,51.9617],[7.60249,51.96133],[7.60249,51.96115],[7.60251,51.96056],[7.60253,51.9602],[7.60257,51.95961],[7.60264,51.95904],[7.60267,51.95874],[7.60269,51.95851],[7.60271,51.95832],[7.6028,51.95766],[7.6028,51.95764],[7.60281,51.95758],[7.60282,51.95747],[7.60282,51.95741],[7.60282,51.95737],[7.60287,51.95679],[7.60279,51.95664],[7.6028,51.9565],[7.60279,51.95607],[7.60274,51.95565],[7.60269,51.95534],[7.60267,51.95521],[7.60264,51.95495],[7.60264,51.95484],[7.60265,51.95465],[7.60269,51.95433],[7.60276,51.95403],[7.60283,51.95382],[7.60287,51.9537],[7.60304,51.95331],[7.60333,51.9527],[7.60349,51.95231],[7.60367,51.95177],[7.60377,51.9516],[7.60402,51.95127],[7.6043,51.95096],[7.60436,51.95092],[7.60456,51.95075],[7.60467,51.95065],[7.60503,51.95038],[7.60369,51.94979],[7.60265,51.94926],[7.60216,51.94897],[7.60189,51.9488],[7.6016,51.94862],[7.60127,51.94838],[7.60112,51.94821],[7.60089,51.9479],[7.60069,51.94764],[7.60041,51.94734],[7.59993,51.94685],[7.59937,51.94629],[7.59849,51.94548],[7.59725,51.94437],[7.59677,51.94397],[7.59559,51.943],[7.59507,51.94248],[7.59506,51.94246],[7.59489,51.94217],[7.59474,51.94184],[7.59474,51.94182],[7.59471,51.94174],[7.59461,51.9415],[7.59452,51.9413],[7.59448,51.94124],[7.59429,51.94114],[7.59404,51.941],[7.59397,51.94097],[7.59318,51.94076],[7.59219,51.9405],[7.59205,51.94045],[7.59188,51.94034],[7.59131,51.93994],[7.59194,51.93953],[7.59271,51.93907],[7.59351,51.93856],[7.59389,51.93831],[7.59416,51.93814],[7.59463,51.93784],[7.59472,51.93778],[7.59516,51.9375],[7.59528,51.93743],[7.59549,51.93729],[7.59605,51.93692],[7.59648,51.93657],[7.59652,51.93653],[7.59687,51.93631],[7.5971,51.9362],[7.59739,51.93606],[7.59746,51.93603],[7.5977,51.93593],[7.59785,51.93586],[7.59816,51.93572],[7.59844,51.93558],[7.59876,51.93543],[7.59884,51.9354],[7.59903,51.93531],[7.59934,51.93516],[7.59999,51.93484],[7.60015,51.9348],[7.60029,51.93481],[7.60054,51.93494],[7.60069,51.93503],[7.60093,51.93516],[7.60094,51.93516],[7.60124,51.93524],[7.60148,51.93524],[7.60173,51.93521],[7.60195,51.93517],[7.60152,51.9348],[7.60142,51.9347],[7.60126,51.93454],[7.60078,51.93404],[7.60015,51.93334],[7.59994,51.9331],[7.59977,51.93289],[7.5994,51.93246],[7.59909,51.93204],[7.59896,51.93186],[7.59857,51.9313],[7.59838,51.93102],[7.598,51.93044],[7.59757,51.92978],[7.59746,51.92962],[7.59742,51.92955],[7.5972,51.92917],[7.59694,51.92871],[7.59694,51.9287],[7.59664,51.92818],[7.59634,51.92765],[7.59632,51.92761],[7.5963,51.92758],[7.59588,51.92683],[7.59562,51.92636],[7.59554,51.92622],[7.59545,51.92607],[7.59489,51.92511],[7.59473,51.92487],[7.59418,51.92404],[7.59344,51.92305],[7.59315,51.9227],[7.59289,51.9224],[7.59225,51.92178],[7.59106,51.9208],[7.59072,51.92054],[7.59069,51.92053],[7.59013,51.92015],[7.5888,51.91934],[7.58798,51.91893],[7.58787,51.91887],[7.58765,51.91876],[7.58504,51.91772],[7.58099,51.91667],[7.58094,51.91666],[7.58026,51.91657],[7.57963,51.91649],[7.57711,51.91615],[7.57689,51.91613],[7.57662,51.9161],[7.57577,51.91604],[7.57462,51.91594],[7.57245,51.91583],[7.571,51.91577],[7.57047,51.91575],[7.56921,51.91572],[7.56807,51.9157],[7.56699,51.91567],[7.56451,51.91559],[7.56366,51.91556],[7.56113,51.91545],[7.56045,51.91541],[7.55966,51.91483],[7.55879,51.91419],[7.5585,51.91407],[7.558,51.91386],[7.55762,51.91378],[7.55686,51.91369],[7.55606,51.91346],[7.55553,51.91312],[7.55578,51.91265],[7.5534,51.91167],[7.55326,51.91161],[7.55294,51.91144],[7.55227,51.91109],[7.55193,51.91097],[7.5517,51.91087],[7.55143,51.91074],[7.5512,51.91064],[7.5508,51.9105],[7.5507,51.91046],[7.55037,51.91032],[7.54905,51.90965],[7.54767,51.90895],[7.5471,51.90864],[7.54685,51.90852],[7.54655,51.90841],[7.54599,51.90813],[7.54552,51.90767],[7.54532,51.90751],[7.54494,51.90718],[7.54446,51.90678],[7.54464,51.90662],[7.54453,51.90657],[7.54427,51.90648],[7.54349,51.90617],[7.54191,51.90551],[7.54149,51.90535],[7.54113,51.90522],[7.54077,51.90509],[7.54056,51.90502],[7.54034,51.90493],[7.53988,51.90471],[7.53586,51.90274],[7.5349,51.90227],[7.53465,51.90217],[7.5347,51.90206],[7.53475,51.90195],[7.53478,51.90189],[7.53497,51.90176],[7.53513,51.90169],[7.53532,51.90163],[7.53531,51.90128],[7.53531,51.90102],[7.53281,51.90053],[7.53263,51.90054],[7.53269,51.90097],[7.53269,51.90102],[7.53086,51.9009],[7.52803,51.90081],[7.52793,51.90081],[7.52784,51.90084],[7.52768,51.90091],[7.52767,51.9009],[7.52765,51.90089],[7.52729,51.90063],[7.52709,51.9005],[7.52704,51.90047],[7.52679,51.90032],[7.5262,51.90001],[7.52565,51.89977],[7.52526,51.89961],[7.52476,51.89943],[7.52432,51.89929],[7.52368,51.89909],[7.52302,51.8989],[7.52292,51.89887],[7.52273,51.89883],[7.52262,51.89881],[7.52261,51.89881],[7.52219,51.8987],[7.5222,51.89869],[7.5217,51.89855],[7.52095,51.89833],[7.51902,51.89782],[7.51775,51.89748],[7.51663,51.89717],[7.51571,51.89691],[7.51502,51.89674],[7.51438,51.89655],[7.51375,51.89634],[7.51347,51.89623],[7.51314,51.8961],[7.51293,51.89601],[7.51281,51.89595],[7.51261,51.89584],[7.51255,51.89584],[7.51215,51.89567],[7.51198,51.89558],[7.5116,51.89537],[7.51144,51.89528],[7.51091,51.89498],[7.51039,51.89468],[7.51014,51.89451],[7.50982,51.89428],[7.50982,51.89439],[7.50984,51.89457],[7.50984,51.89461],[7.50987,51.89469],[7.50992,51.89476],[7.51003,51.89485],[7.51006,51.8949],[7.51005,51.89498],[7.50969,51.89528],[7.50942,51.89564],[7.50896,51.89627],[7.50857,51.89678],[7.50846,51.897],[7.50841,51.89715],[7.50843,51.89729],[7.50864,51.89765],[7.50882,51.898],[7.5091,51.89945],[7.50916,51.90038],[7.50912,51.90055],[7.50906,51.90071],[7.5087,51.90143],[7.50865,51.9016],[7.50863,51.90177],[7.50864,51.90194],[7.50867,51.90212],[7.50871,51.90228],[7.50882,51.90256],[7.5089,51.90276],[7.509,51.90286],[7.50976,51.90335],[7.5101,51.90358],[7.51124,51.90442],[7.51167,51.90476],[7.51199,51.90505],[7.51209,51.90515],[7.51217,51.90526],[7.51227,51.9057],[7.51226,51.90595],[7.51226,51.90617],[7.51227,51.9063],[7.51205,51.90731],[7.51154,51.90806],[7.51108,51.90857],[7.51093,51.90887],[7.51089,51.90918],[7.51096,51.9095],[7.51118,51.91016],[7.51136,51.91082],[7.51142,51.91103],[7.51141,51.91116],[7.51132,51.91138],[7.51128,51.91145],[7.51123,51.91154],[7.51117,51.91166],[7.5107,51.91243],[7.5106,51.91255],[7.50906,51.914],[7.50773,51.91341],[7.50749,51.91335],[7.50603,51.91354],[7.5059,51.91357],[7.50576,51.91362],[7.50565,51.91368],[7.50558,51.91376],[7.50552,51.91383],[7.50542,51.914],[7.50538,51.9141],[7.50521,51.91481],[7.50508,51.91606],[7.50498,51.91718],[7.50497,51.91722],[7.505,51.91719],[7.50502,51.9172],[7.50546,51.91798],[7.50549,51.91796],[7.50551,51.91801],[7.50607,51.9192],[7.50675,51.92066],[7.50758,51.92231],[7.50764,51.92243],[7.50678,51.9222],[7.50611,51.923],[7.5052,51.92486],[7.50432,51.92592],[7.5032,51.92728],[7.50596,51.9272],[7.50702,51.92703],[7.50724,51.927],[7.5077,51.92698],[7.50908,51.92696],[7.50876,51.92809],[7.50878,51.92809],[7.50877,51.92813],[7.50873,51.92813],[7.50863,51.92848],[7.50866,51.92852],[7.50863,51.92853],[7.5082,51.93001],[7.50783,51.93125],[7.50775,51.93137],[7.50848,51.93155],[7.50854,51.93155],[7.51085,51.93211],[7.51187,51.93235],[7.51195,51.93239],[7.51198,51.93241],[7.51202,51.93245],[7.51192,51.93335],[7.51183,51.93425],[7.51174,51.93514],[7.51168,51.93571],[7.51169,51.93579],[7.51037,51.93594],[7.50901,51.93616],[7.5086,51.93625],[7.50803,51.93636],[7.50767,51.93643],[7.50735,51.93651],[7.50639,51.93675],[7.50564,51.93695],[7.50546,51.93699],[7.50374,51.93743],[7.50213,51.93787],[7.4997,51.93852],[7.49969,51.93853],[7.49936,51.93861],[7.49884,51.93876],[7.4982,51.93893],[7.49745,51.93913],[7.49713,51.93922],[7.49683,51.93929],[7.4964,51.93942],[7.49537,51.9397],[7.4951,51.93979],[7.49495,51.93982],[7.49485,51.93982],[7.49476,51.93982],[7.49407,51.93985],[7.49372,51.93983],[7.49339,51.93979],[7.49319,51.93977],[7.49278,51.93971],[7.49233,51.93965],[7.49196,51.93959],[7.49149,51.93953],[7.49117,51.93947],[7.49084,51.93943],[7.4904,51.93937],[7.49005,51.93931],[7.48978,51.93929],[7.48975,51.93928],[7.4897,51.93938],[7.48965,51.93939],[7.48958,51.93938],[7.48937,51.93935],[7.48915,51.93931],[7.489,51.93929],[7.4888,51.93926],[7.48867,51.9393],[7.48865,51.93921],[7.48845,51.93922],[7.48815,51.93918],[7.48773,51.93911],[7.48756,51.93905],[7.48694,51.93888],[7.48662,51.93908],[7.48629,51.93932],[7.48613,51.93942],[7.48597,51.93955],[7.48576,51.93968],[7.48562,51.93979],[7.48547,51.93998],[7.48522,51.94034],[7.48516,51.94048],[7.4851,51.94069],[7.48511,51.9409],[7.48508,51.94093],[7.48462,51.94095],[7.48278,51.94129],[7.48257,51.94135],[7.48221,51.94148],[7.48209,51.94144],[7.48156,51.94125],[7.48048,51.94103],[7.48028,51.94133],[7.48023,51.94132],[7.48021,51.94133],[7.47959,51.9412],[7.47938,51.94115],[7.47887,51.94107],[7.47837,51.94099],[7.47826,51.94092],[7.47812,51.94087],[7.47796,51.94084],[7.4778,51.94083],[7.4777,51.94085],[7.47764,51.94079],[7.47744,51.9406],[7.47732,51.94045],[7.47715,51.94023],[7.47689,51.93992],[7.47674,51.93979],[7.47654,51.9397],[7.47637,51.93965],[7.47593,51.93958],[7.47547,51.93956],[7.47538,51.9396],[7.47533,51.93966],[7.47528,51.93974],[7.47528,51.93985],[7.47524,51.93994],[7.47519,51.94013],[7.47512,51.94021],[7.47496,51.94026],[7.47485,51.94029],[7.47479,51.94032],[7.47466,51.94034],[7.47452,51.94038],[7.47446,51.94041],[7.4743,51.94049],[7.47423,51.94062],[7.47413,51.94084],[7.47412,51.94093],[7.47407,51.94104],[7.47401,51.94121],[7.47397,51.94133],[7.47392,51.94145],[7.47381,51.94156],[7.47378,51.94163],[7.47404,51.94167],[7.47418,51.94169],[7.47434,51.94178],[7.47441,51.94185],[7.47452,51.94193],[7.47452,51.94197],[7.47447,51.94196],[7.47439,51.94213],[7.47429,51.94221],[7.47439,51.94224],[7.47449,51.94227],[7.47467,51.94231],[7.47487,51.94235],[7.47499,51.94239],[7.47519,51.9424],[7.47526,51.94241],[7.47533,51.94237],[7.47541,51.94238],[7.47548,51.94242],[7.47553,51.94243],[7.47574,51.94245],[7.47592,51.94251],[7.47608,51.94253],[7.47623,51.94256],[7.47634,51.94258],[7.47651,51.94262],[7.47661,51.94266],[7.47674,51.94267],[7.47679,51.9427],[7.47693,51.94272],[7.47699,51.94274],[7.47709,51.94275],[7.4772,51.94279],[7.47729,51.9428],[7.47743,51.94285],[7.47759,51.94286],[7.47768,51.94289],[7.47789,51.9429],[7.47794,51.94291],[7.47804,51.94295],[7.47822,51.94293],[7.47842,51.94297],[7.47858,51.94298],[7.47863,51.94298],[7.47874,51.94299],[7.47925,51.94304],[7.47923,51.94309],[7.47928,51.94312],[7.47934,51.94314],[7.47819,51.94467],[7.47806,51.94519],[7.47892,51.94507],[7.47895,51.94515],[7.47896,51.94519],[7.47893,51.94549],[7.47894,51.94551],[7.47895,51.94561],[7.47887,51.94612],[7.47887,51.9462],[7.47884,51.94645],[7.4788,51.94674],[7.47876,51.94696],[7.47874,51.94706],[7.47871,51.94716],[7.47871,51.94717],[7.4787,51.94723],[7.47869,51.94733],[7.47867,51.94741],[7.47865,51.94748],[7.47865,51.94763],[7.47864,51.94778],[7.47864,51.94785],[7.47864,51.94797],[7.47863,51.94805],[7.4786,51.94814],[7.47856,51.94834],[7.47855,51.94838],[7.47856,51.94843],[7.47854,51.94843],[7.47854,51.94846],[7.47856,51.94851],[7.47861,51.94851],[7.47872,51.94848],[7.47876,51.94852],[7.47875,51.94863],[7.47882,51.9487],[7.47879,51.94872],[7.47881,51.94901],[7.4788,51.9491],[7.47878,51.94928],[7.47877,51.9495],[7.47878,51.94957],[7.47874,51.94968],[7.47875,51.94979],[7.4788,51.94979],[7.47899,51.94981],[7.47918,51.9498],[7.47944,51.9498],[7.47978,51.94977],[7.47981,51.94981],[7.47991,51.95008],[7.47999,51.95029],[7.48012,51.9507],[7.48032,51.95135],[7.48036,51.95164],[7.48037,51.95171],[7.48035,51.95173],[7.4803,51.9519],[7.48026,51.952],[7.48011,51.95196],[7.48012,51.952],[7.48016,51.95205],[7.48016,51.95208],[7.48012,51.95214],[7.47995,51.95234],[7.47988,51.95244],[7.47976,51.9526],[7.47966,51.95272],[7.47923,51.95326],[7.47901,51.95348],[7.47893,51.95358],[7.47878,51.95373],[7.47861,51.95392],[7.47847,51.95407],[7.47832,51.95422],[7.47812,51.95447],[7.47797,51.95464],[7.47784,51.95481],[7.47767,51.95505],[7.478,51.95507],[7.4784,51.95514],[7.47863,51.95518],[7.47882,51.95522],[7.47888,51.95517],[7.47902,51.95519],[7.47918,51.95521],[7.47969,51.9553],[7.4798,51.95533],[7.47982,51.95533],[7.47982,51.95538],[7.47979,51.9554],[7.47984,51.95541],[7.47991,51.95543],[7.48005,51.95547],[7.48014,51.95549],[7.48025,51.95552],[7.48039,51.95556],[7.48064,51.95563],[7.48075,51.95565],[7.48093,51.95567],[7.4811,51.95571],[7.48118,51.95573],[7.48126,51.95577],[7.48131,51.95583],[7.48138,51.95589],[7.48141,51.95598],[7.48141,51.95601],[7.48139,51.95603],[7.48133,51.95606],[7.48128,51.95611],[7.48107,51.95617],[7.4809,51.95626],[7.48087,51.9563],[7.48089,51.95633],[7.48094,51.95634],[7.48102,51.95637],[7.48106,51.9564],[7.48107,51.95644],[7.48106,51.95649],[7.48088,51.95667],[7.48083,51.95673],[7.4808,51.95677],[7.48078,51.95684],[7.48074,51.95689],[7.48069,51.95693],[7.48063,51.95701],[7.48069,51.95724],[7.48066,51.95731],[7.4806,51.95734],[7.4806,51.95745],[7.48064,51.95747],[7.48082,51.95751],[7.48106,51.95754],[7.48136,51.95757],[7.48172,51.95762],[7.48231,51.95768],[7.48273,51.95778],[7.48295,51.95783],[7.48317,51.95785],[7.48326,51.95786],[7.48291,51.95828],[7.48336,51.95826],[7.48351,51.95827],[7.48382,51.95843],[7.48418,51.95855],[7.48505,51.95868],[7.4857,51.95881],[7.4859,51.95883],[7.48634,51.95891],[7.48656,51.95892],[7.48686,51.95889],[7.48691,51.95907],[7.48724,51.95944],[7.4874,51.95941],[7.4875,51.95933],[7.48764,51.9592],[7.4877,51.95912],[7.48828,51.95928],[7.48811,51.95942],[7.4878,51.95965],[7.48777,51.95968],[7.48768,51.95977],[7.48749,51.95991],[7.48741,51.95998],[7.48733,51.96006],[7.48724,51.9601],[7.48718,51.96019],[7.48707,51.96035],[7.48708,51.96044],[7.48684,51.96061],[7.48681,51.96065],[7.48663,51.9609],[7.48661,51.96095],[7.48652,51.96106],[7.48646,51.96117],[7.48644,51.96122],[7.48656,51.96124],[7.48718,51.96134],[7.48737,51.96137],[7.48769,51.96141],[7.48794,51.96143],[7.4881,51.96145],[7.4888,51.96154],[7.48902,51.96154],[7.48929,51.96153],[7.48961,51.96152],[7.48977,51.96149],[7.48985,51.96147],[7.4899,51.96144],[7.49005,51.96148],[7.49017,51.96149],[7.49026,51.96148],[7.49049,51.96138],[7.4905,51.96136],[7.49062,51.96142],[7.49081,51.9615],[7.49087,51.96155],[7.49089,51.9617],[7.4909,51.96199],[7.49095,51.96218],[7.49102,51.9624],[7.49113,51.96271],[7.49137,51.96281],[7.49151,51.96284],[7.4916,51.96285],[7.49167,51.96285],[7.49189,51.96286],[7.49217,51.9629],[7.49251,51.96295],[7.49302,51.96303],[7.4932,51.9631],[7.49322,51.96326],[7.49318,51.96361],[7.49316,51.9637],[7.49314,51.96384],[7.4932,51.96392],[7.49343,51.96394],[7.49394,51.96403],[7.49419,51.9641],[7.49419,51.96412],[7.49411,51.96414],[7.4941,51.96435],[7.49409,51.96442],[7.4941,51.96449],[7.49417,51.96457],[7.49427,51.96473],[7.49436,51.96505],[7.49441,51.9652],[7.49451,51.96531],[7.49462,51.96545],[7.49471,51.96557],[7.49476,51.96562],[7.49482,51.96567],[7.49504,51.96575],[7.49504,51.96585],[7.49499,51.96602],[7.49491,51.96615],[7.49486,51.96628],[7.49491,51.9663],[7.49512,51.96632],[7.49521,51.96632],[7.49537,51.96637],[7.49569,51.96643],[7.49588,51.96648],[7.49607,51.96655],[7.49638,51.96667],[7.49653,51.96673],[7.49681,51.96688],[7.49692,51.96692],[7.497,51.96701],[7.49702,51.96711],[7.49705,51.96717],[7.49706,51.96721],[7.49709,51.96726],[7.49716,51.96729],[7.49715,51.9673],[7.49709,51.9673],[7.49707,51.96733],[7.49706,51.96749],[7.49711,51.9677],[7.49724,51.96776],[7.49731,51.9678],[7.49743,51.96785],[7.49756,51.96792],[7.49771,51.96799],[7.49777,51.96803],[7.49781,51.96808],[7.49791,51.96811],[7.49804,51.96822],[7.49827,51.96835],[7.49838,51.96842],[7.49844,51.96848],[7.49853,51.96851],[7.49865,51.96849],[7.49872,51.96845],[7.49884,51.96841],[7.49901,51.96828],[7.49912,51.96821],[7.49916,51.96817],[7.49918,51.96818],[7.49923,51.96819],[7.49944,51.96828],[7.49997,51.96848],[7.49981,51.96873],[7.49969,51.96894],[7.49967,51.96911],[7.50112,51.96944],[7.5017,51.96959],[7.50185,51.96961],[7.50302,51.96954],[7.50403,51.96949],[7.50448,51.96947],[7.50445,51.96962],[7.50515,51.96958],[7.50624,51.96951],[7.50686,51.96943],[7.50731,51.96933],[7.50758,51.96925],[7.50783,51.96917],[7.50829,51.969],[7.5087,51.96907],[7.50874,51.96914],[7.50896,51.96952],[7.50916,51.96985],[7.50937,51.97019],[7.5096,51.97052],[7.50983,51.97085],[7.51009,51.97118],[7.51035,51.9715],[7.51064,51.97182],[7.51096,51.97213],[7.51147,51.9726],[7.51203,51.97312],[7.51211,51.97316],[7.51246,51.97333],[7.5133,51.97375],[7.51401,51.97409],[7.51474,51.9744],[7.51547,51.97469],[7.51634,51.97503],[7.51743,51.97546],[7.51841,51.97585],[7.51933,51.97628],[7.51982,51.97651],[7.51991,51.97656],[7.51999,51.97659],[7.52024,51.97672],[7.52061,51.97688],[7.52102,51.97713],[7.5221,51.97774],[7.52265,51.97805],[7.5209,51.97826],[7.52091,51.97832],[7.52083,51.97833],[7.52081,51.97835],[7.52079,51.97855],[7.5207,51.97963],[7.5206,51.98103],[7.5206,51.98104],[7.52056,51.98109],[7.52054,51.98111],[7.52049,51.98116],[7.52036,51.98127],[7.52017,51.98165],[7.5199,51.98184],[7.51978,51.98194],[7.51961,51.98241],[7.51928,51.98271],[7.51904,51.98287],[7.51889,51.98303],[7.51873,51.98317],[7.51843,51.98332],[7.51833,51.98348],[7.5177,51.98398],[7.51769,51.98406],[7.51768,51.98416],[7.51767,51.98419],[7.5172,51.98447],[7.51687,51.98455],[7.51595,51.98495],[7.51532,51.98552],[7.51535,51.98569],[7.51512,51.98603],[7.51502,51.9862],[7.51501,51.98621],[7.51502,51.98625],[7.51504,51.98632],[7.51512,51.98637],[7.51524,51.9864],[7.51555,51.98649],[7.51828,51.98723],[7.51827,51.98725],[7.51822,51.98724],[7.51783,51.98779],[7.51733,51.98867],[7.51696,51.98944],[7.51696,51.98951],[7.51693,51.98973],[7.51641,51.99107],[7.51617,51.99168],[7.51611,51.99172],[7.51595,51.99233],[7.51598,51.99237],[7.51596,51.99241],[7.51591,51.99246],[7.51581,51.99289],[7.51557,51.99325],[7.51523,51.99361],[7.51461,51.99444],[7.51413,51.99484],[7.51366,51.99529],[7.51359,51.9953],[7.51359,51.99549],[7.51389,51.99572],[7.51411,51.99583],[7.51451,51.996],[7.51491,51.99625],[7.51489,51.99628],[7.51433,51.997],[7.51364,51.99796],[7.51338,51.99859],[7.51343,51.99859],[7.51334,51.99879],[7.51363,51.99881],[7.51458,51.99891],[7.51469,51.99892],[7.51673,51.99916],[7.5175,51.99923],[7.51795,51.99927],[7.51849,51.9993],[7.51872,51.99936],[7.51904,51.99941],[7.51908,51.99939],[7.51915,51.99939],[7.51927,51.99936],[7.51939,51.99934],[7.5197,51.99931],[7.51989,51.9993],[7.52015,51.99928],[7.52047,51.99925],[7.52013,51.9997],[7.52005,51.99976],[7.51932,52.00073],[7.51867,52.00152],[7.51832,52.00197],[7.5181,52.00225],[7.51804,52.00228],[7.51794,52.00248],[7.51792,52.00252],[7.5179,52.00252],[7.51788,52.00253],[7.51788,52.00258],[7.51786,52.00265],[7.51755,52.00311],[7.51695,52.004],[7.51672,52.00436],[7.51664,52.0045],[7.51658,52.00461],[7.51598,52.0055],[7.51559,52.00608],[7.51544,52.00627],[7.51478,52.00709],[7.51417,52.00779],[7.51358,52.00847],[7.51333,52.00878],[7.51342,52.00883],[7.51569,52.00894],[7.51566,52.00908],[7.5159,52.0092],[7.51592,52.00921],[7.51582,52.00922],[7.51506,52.0103],[7.51492,52.01058],[7.51401,52.0122],[7.51497,52.01241],[7.51623,52.01279],[7.51729,52.01306],[7.51752,52.01311],[7.51787,52.01313],[7.51939,52.01337],[7.51952,52.01338],[7.51946,52.0134],[7.51964,52.01345],[7.51984,52.0135],[7.51986,52.01353],[7.52133,52.01367],[7.52136,52.01365],[7.52121,52.0143],[7.52125,52.01434],[7.5211,52.01484],[7.52111,52.01485],[7.52243,52.01493],[7.52246,52.01485],[7.52312,52.01488],[7.52396,52.01492],[7.52401,52.01493],[7.52369,52.0161],[7.52338,52.01714],[7.52351,52.01724],[7.52565,52.01726],[7.52592,52.01723],[7.52718,52.01686],[7.52732,52.01688],[7.5283,52.01702],[7.52963,52.0173],[7.53011,52.01744],[7.53087,52.01769],[7.53193,52.01803],[7.53196,52.018],[7.53253,52.01823],[7.53287,52.01842],[7.53291,52.01843],[7.53303,52.0185],[7.53361,52.01911],[7.534,52.01942],[7.5339,52.01959],[7.53412,52.01966],[7.53423,52.01969],[7.53436,52.01973],[7.53434,52.01976],[7.5342,52.01979],[7.53428,52.01981],[7.53401,52.02049],[7.53385,52.02085],[7.53381,52.02084],[7.5334,52.02166],[7.53293,52.02236],[7.53213,52.02329],[7.53217,52.0233],[7.53201,52.0234],[7.534,52.02496],[7.53413,52.02506],[7.53411,52.02537],[7.53374,52.02611],[7.5332,52.02708],[7.53318,52.0271],[7.53558,52.02769],[7.53556,52.02771],[7.53557,52.02776],[7.53559,52.02785],[7.53539,52.02817],[7.53521,52.02838],[7.53497,52.02876],[7.53467,52.02913],[7.53434,52.02966],[7.53422,52.02979],[7.53413,52.0299],[7.53441,52.03],[7.53415,52.03053],[7.53432,52.03061],[7.53134,52.03337],[7.53132,52.03339],[7.53298,52.03395],[7.53303,52.03395],[7.53333,52.0336],[7.53338,52.03359],[7.53453,52.03396],[7.53575,52.03434],[7.53702,52.03475],[7.53802,52.03503],[7.53812,52.03506],[7.53822,52.03508],[7.53913,52.03534],[7.53923,52.03538],[7.53981,52.03569],[7.53996,52.03575],[7.54197,52.03647],[7.54182,52.03683],[7.54181,52.03692],[7.54181,52.03698],[7.54184,52.03699],[7.54358,52.03738],[7.54686,52.03816],[7.54881,52.03864],[7.54886,52.03866],[7.55153,52.03992],[7.55157,52.03994],[7.55169,52.04002],[7.55236,52.04094],[7.55238,52.04096],[7.55251,52.04104],[7.554,52.04164],[7.55406,52.04162],[7.55402,52.0416],[7.55417,52.0414],[7.55675,52.04236],[7.55902,52.04321]]]}},{"type":"Feature","properties":{"name":"Nord","nr":"6"},"geometry":{"type":"Polygon","coordinates":[[[7.56888,51.9948],[7.56847,51.995],[7.56807,51.99519],[7.56765,51.9954],[7.56677,51.99582],[7.56708,51.99616],[7.56746,51.99657],[7.56784,51.997],[7.56892,51.9983],[7.57008,51.99979],[7.57117,52.00121],[7.57188,52.00206],[7.57214,52.00241],[7.57268,52.00307],[7.573,52.00304],[7.57332,52.00302],[7.57364,52.00302],[7.57407,52.00301],[7.57397,52.00305],[7.57421,52.00305],[7.5742,52.00311],[7.57404,52.00313],[7.57391,52.00319],[7.57393,52.00324],[7.57416,52.00336],[7.57467,52.00356],[7.57526,52.00375],[7.57533,52.00377],[7.57577,52.00389],[7.57627,52.00402],[7.57692,52.0042],[7.57763,52.00442],[7.57781,52.00447],[7.57824,52.00458],[7.57856,52.00465],[7.57914,52.00469],[7.57949,52.00472],[7.57984,52.00482],[7.58017,52.00497],[7.58034,52.00504],[7.58081,52.00517],[7.58317,52.00574],[7.58414,52.00597],[7.58562,52.00623],[7.58645,52.00638],[7.58738,52.00659],[7.58818,52.00681],[7.58909,52.00702],[7.58944,52.00708],[7.58977,52.00711],[7.59023,52.00714],[7.59067,52.00717],[7.59053,52.00798],[7.5905,52.00835],[7.59045,52.00939],[7.59039,52.01028],[7.59037,52.01042],[7.59034,52.01082],[7.59016,52.01194],[7.59009,52.01239],[7.59,52.01337],[7.58994,52.01402],[7.58987,52.01481],[7.58978,52.01577],[7.5896,52.01754],[7.59069,52.01841],[7.59074,52.0189],[7.59082,52.01943],[7.59084,52.01978],[7.59085,52.02034],[7.59085,52.02041],[7.59082,52.02047],[7.59077,52.02056],[7.59073,52.02067],[7.5907,52.02079],[7.5907,52.02093],[7.59073,52.02105],[7.59082,52.02119],[7.59098,52.0214],[7.59128,52.02184],[7.59186,52.02272],[7.59229,52.02331],[7.59251,52.02362],[7.59287,52.02408],[7.5932,52.02455],[7.59328,52.02468],[7.59334,52.02484],[7.59337,52.02503],[7.5934,52.02566],[7.59342,52.02646],[7.59342,52.02654],[7.5934,52.02681],[7.5934,52.0269],[7.59334,52.02768],[7.59329,52.02814],[7.59325,52.02843],[7.59302,52.02999],[7.59284,52.03082],[7.59282,52.03092],[7.59253,52.03126],[7.59186,52.03199],[7.59159,52.03228],[7.5906,52.03334],[7.58968,52.03423],[7.58944,52.03446],[7.58912,52.03481],[7.58869,52.03542],[7.5884,52.03581],[7.58794,52.03647],[7.58771,52.03681],[7.58748,52.03735],[7.5873,52.03776],[7.58716,52.03798],[7.58606,52.03983],[7.58557,52.04065],[7.58547,52.04078],[7.5853,52.04092],[7.58519,52.04099],[7.58468,52.04108],[7.58457,52.0411],[7.58256,52.04151],[7.58198,52.04163],[7.58194,52.04155],[7.58119,52.04171],[7.58084,52.04183],[7.58045,52.04195],[7.57998,52.04219],[7.57896,52.04269],[7.57857,52.04295],[7.5785,52.043],[7.57822,52.04316],[7.5777,52.04345],[7.57686,52.04394],[7.57636,52.04423],[7.57612,52.04436],[7.57527,52.04488],[7.57495,52.04501],[7.57476,52.04505],[7.5746,52.04509],[7.57421,52.04514],[7.57284,52.04521],[7.57049,52.04524],[7.56986,52.04527],[7.56717,52.0454],[7.56429,52.04553],[7.56313,52.04559],[7.56315,52.04566],[7.56367,52.04563],[7.56379,52.04586],[7.56451,52.04637],[7.5669,52.04717],[7.56784,52.04747],[7.56833,52.04766],[7.56869,52.04773],[7.5689,52.04781],[7.56933,52.04816],[7.56979,52.04859],[7.56998,52.04899],[7.57025,52.04898],[7.57031,52.04901],[7.57059,52.04876],[7.5709,52.04854],[7.57123,52.04834],[7.57241,52.04763],[7.57258,52.0475],[7.57269,52.04739],[7.57349,52.0463],[7.57356,52.04618],[7.57379,52.04593],[7.57384,52.04597],[7.57416,52.04599],[7.5746,52.04589],[7.5747,52.04588],[7.57546,52.04599],[7.57591,52.04613],[7.57655,52.04642],[7.57709,52.04661],[7.57714,52.04661],[7.57913,52.04678],[7.5808,52.04693],[7.58185,52.04701],[7.58442,52.04805],[7.58734,52.04922],[7.58831,52.04961],[7.58848,52.04969],[7.58804,52.05065],[7.58589,52.05527],[7.58607,52.05528],[7.5859,52.05566],[7.58694,52.05593],[7.58675,52.05646],[7.58756,52.05697],[7.5878,52.05707],[7.58827,52.05719],[7.58927,52.05734],[7.59014,52.05734],[7.59026,52.05733],[7.59046,52.05745],[7.59058,52.05746],[7.59145,52.05748],[7.59188,52.05756],[7.59193,52.05757],[7.59279,52.05797],[7.59305,52.0581],[7.59455,52.05876],[7.59476,52.05891],[7.595,52.05881],[7.59514,52.05879],[7.59584,52.05892],[7.5963,52.05899],[7.59631,52.059],[7.59695,52.05913],[7.59767,52.05935],[7.59804,52.05954],[7.59817,52.05972],[7.59826,52.05977],[7.59861,52.05999],[7.59886,52.06002],[7.59923,52.05974],[7.5999,52.05952],[7.60073,52.05922],[7.60113,52.05905],[7.60124,52.05901],[7.60244,52.05855],[7.60295,52.05843],[7.60428,52.05791],[7.60524,52.05753],[7.60547,52.05744],[7.60604,52.05723],[7.60694,52.05695],[7.6077,52.05686],[7.60874,52.0567],[7.60904,52.05655],[7.61088,52.05608],[7.61123,52.0559],[7.61127,52.05583],[7.61132,52.05567],[7.61157,52.0555],[7.61181,52.05547],[7.612,52.05545],[7.61244,52.05539],[7.61316,52.05494],[7.61365,52.05464],[7.61408,52.05442],[7.61431,52.05425],[7.6145,52.05403],[7.61463,52.054],[7.6148,52.05358],[7.61498,52.05359],[7.61554,52.05334],[7.61669,52.053],[7.61734,52.05281],[7.61744,52.0528],[7.61719,52.0526],[7.61705,52.05248],[7.61697,52.05234],[7.61694,52.0522],[7.61697,52.05205],[7.61703,52.0519],[7.61712,52.05178],[7.61726,52.05161],[7.61748,52.05137],[7.61771,52.05112],[7.61784,52.05097],[7.61794,52.05085],[7.61799,52.05073],[7.61801,52.0506],[7.61799,52.05047],[7.61794,52.05034],[7.61789,52.05021],[7.61787,52.05006],[7.61791,52.0499],[7.61804,52.04977],[7.61826,52.04969],[7.61852,52.04967],[7.61896,52.04965],[7.61988,52.0496],[7.62006,52.04957],[7.62022,52.04949],[7.62039,52.04937],[7.62063,52.04915],[7.62091,52.04892],[7.62126,52.04861],[7.62155,52.04838],[7.62186,52.04815],[7.62216,52.04794],[7.62245,52.04773],[7.62275,52.04754],[7.62322,52.04727],[7.62394,52.04686],[7.62454,52.04646],[7.6254,52.04583],[7.62585,52.0455],[7.62596,52.04544],[7.62609,52.04537],[7.62646,52.04523],[7.62734,52.04492],[7.62842,52.04452],[7.6288,52.04438],[7.62913,52.04424],[7.62948,52.04402],[7.6297,52.04377],[7.62988,52.0435],[7.63002,52.04325],[7.63035,52.04265],[7.63072,52.042],[7.63105,52.04139],[7.63112,52.0412],[7.63109,52.04103],[7.63109,52.04102],[7.63118,52.04101],[7.63125,52.04106],[7.6323,52.04128],[7.63192,52.04178],[7.63295,52.0422],[7.63382,52.04256],[7.63382,52.0426],[7.63389,52.04261],[7.63396,52.0426],[7.63386,52.04272],[7.63309,52.0432],[7.63277,52.04348],[7.63208,52.04492],[7.63706,52.04556],[7.63748,52.04471],[7.63759,52.04473],[7.64081,52.04693],[7.64096,52.04697],[7.64172,52.04583],[7.6455,52.04609],[7.64555,52.04578],[7.64744,52.04589],[7.64754,52.0453],[7.64753,52.04477],[7.64751,52.04454],[7.64748,52.04431],[7.6473,52.04363],[7.64727,52.04336],[7.64728,52.04308],[7.64728,52.04272],[7.64721,52.04249],[7.64708,52.04224],[7.64696,52.04193],[7.64696,52.04165],[7.647,52.04137],[7.64703,52.04108],[7.64708,52.04086],[7.64721,52.04062],[7.64748,52.04021],[7.6477,52.03985],[7.64732,52.03979],[7.64723,52.03976],[7.64584,52.03966],[7.64633,52.03903],[7.64533,52.03882],[7.64611,52.03804],[7.65413,52.02994],[7.65472,52.02934],[7.65328,52.02914],[7.65319,52.02912],[7.65444,52.02793],[7.65542,52.02876],[7.65616,52.0294],[7.65628,52.02948],[7.65658,52.02917],[7.65758,52.02818],[7.65801,52.02781],[7.6585,52.02741],[7.6595,52.0266],[7.66137,52.02505],[7.66411,52.02277],[7.66434,52.02253],[7.66438,52.02245],[7.66437,52.02229],[7.66433,52.02214],[7.66434,52.02197],[7.66446,52.02185],[7.66471,52.02176],[7.66514,52.02169],[7.66462,52.02034],[7.66408,52.01882],[7.66271,52.01504],[7.66217,52.01358],[7.66131,52.01125],[7.66084,52.00998],[7.66041,52.00876],[7.66038,52.00866],[7.66006,52.00774],[7.65969,52.00652],[7.65917,52.0048],[7.65909,52.00295],[7.65908,52.00224],[7.65913,52.00166],[7.65921,52.00083],[7.65922,52.00069],[7.65936,51.99792],[7.65943,51.99606],[7.65944,51.99589],[7.65947,51.99554],[7.65959,51.99404],[7.65961,51.99375],[7.65961,51.99367],[7.65965,51.99327],[7.65979,51.99207],[7.65982,51.99189],[7.65985,51.99159],[7.65991,51.99109],[7.65996,51.99074],[7.66,51.98956],[7.66005,51.98783],[7.66012,51.98727],[7.65767,51.98703],[7.65694,51.98695],[7.65668,51.98692],[7.65589,51.9867],[7.65491,51.98644],[7.65383,51.98619],[7.65249,51.98592],[7.65152,51.98573],[7.64951,51.98543],[7.64822,51.98528],[7.6476,51.98525],[7.64696,51.98524],[7.64568,51.98535],[7.64483,51.98544],[7.64437,51.98552],[7.64333,51.98571],[7.64224,51.98597],[7.64154,51.98619],[7.64021,51.98664],[7.63878,51.98724],[7.6378,51.9877],[7.63662,51.98831],[7.63593,51.98859],[7.63521,51.98879],[7.63425,51.98902],[7.63341,51.98918],[7.63274,51.9893],[7.63187,51.98939],[7.63068,51.98941],[7.63046,51.98941],[7.62991,51.98938],[7.62947,51.98936],[7.62799,51.9892],[7.62556,51.98883],[7.62153,51.98828],[7.6172,51.98768],[7.61529,51.98743],[7.61144,51.98692],[7.61028,51.98669],[7.60778,51.98623],[7.60721,51.98612],[7.60643,51.98604],[7.6035,51.98594],[7.5998,51.98578],[7.59905,51.98575],[7.59822,51.98564],[7.59731,51.98552],[7.59605,51.98531],[7.59601,51.9853],[7.59421,51.98494],[7.59367,51.98479],[7.59255,51.98449],[7.59241,51.98445],[7.58992,51.9833],[7.58966,51.98345],[7.58945,51.98358],[7.58858,51.98409],[7.58855,51.98411],[7.58846,51.98416],[7.58714,51.98494],[7.58627,51.98544],[7.58503,51.98617],[7.58398,51.98681],[7.58381,51.98692],[7.58361,51.98704],[7.58293,51.9874],[7.58196,51.98772],[7.58102,51.98797],[7.58099,51.98798],[7.58073,51.98802],[7.58075,51.98805],[7.58083,51.98821],[7.58082,51.98837],[7.58069,51.9886],[7.58042,51.98886],[7.57963,51.98937],[7.57841,51.99009],[7.57752,51.9906],[7.57717,51.9908],[7.57682,51.99098],[7.57585,51.99142],[7.5755,51.9916],[7.57496,51.99187],[7.57475,51.99197],[7.57413,51.99225],[7.57397,51.99233],[7.5725,51.99306],[7.57216,51.99322],[7.5721,51.99325],[7.57183,51.99338],[7.57177,51.99341],[7.5706,51.99397],[7.56927,51.99461],[7.56912,51.99469],[7.56898,51.99475],[7.56888,51.9948]]]}},{"type":"Feature","properties":{"name":"Ost","nr":"7"},"geometry":{"type":"Polygon","coordinates":[[[7.66024,51.98617],[7.66014,51.9871],[7.66012,51.98727],[7.66005,51.98783],[7.66,51.98956],[7.65996,51.99074],[7.65991,51.99109],[7.65985,51.99159],[7.65982,51.99189],[7.65979,51.99207],[7.65965,51.99327],[7.65961,51.99367],[7.65961,51.99375],[7.65959,51.99404],[7.65947,51.99554],[7.65944,51.99589],[7.65943,51.99606],[7.65936,51.99792],[7.65922,52.00069],[7.65921,52.00083],[7.65913,52.00166],[7.65908,52.00224],[7.65909,52.00295],[7.65917,52.0048],[7.65969,52.00652],[7.66006,52.00774],[7.66038,52.00866],[7.66041,52.00876],[7.66084,52.00998],[7.66131,52.01125],[7.66217,52.01358],[7.66271,52.01504],[7.66408,52.01882],[7.66462,52.02034],[7.66514,52.02169],[7.66471,52.02176],[7.66446,52.02185],[7.66434,52.02197],[7.66433,52.02214],[7.66437,52.02229],[7.66438,52.02245],[7.66434,52.02253],[7.66411,52.02277],[7.66137,52.02505],[7.6595,52.0266],[7.6585,52.02741],[7.65801,52.02781],[7.65758,52.02818],[7.65658,52.02917],[7.65628,52.02948],[7.65616,52.0294],[7.65542,52.02876],[7.65444,52.02793],[7.65319,52.02912],[7.65328,52.02914],[7.65472,52.02934],[7.65413,52.02994],[7.64611,52.03804],[7.64533,52.03882],[7.64633,52.03903],[7.64584,52.03966],[7.64723,52.03976],[7.64732,52.03979],[7.6477,52.03985],[7.64748,52.04021],[7.64721,52.04062],[7.64708,52.04086],[7.64703,52.04108],[7.647,52.04137],[7.64696,52.04165],[7.64696,52.04193],[7.64708,52.04224],[7.64721,52.04249],[7.64728,52.04272],[7.64728,52.04308],[7.64727,52.04336],[7.6473,52.04363],[7.64748,52.04431],[7.64751,52.04454],[7.64753,52.04477],[7.64754,52.0453],[7.64744,52.04589],[7.64773,52.04606],[7.64771,52.04688],[7.64785,52.04774],[7.64807,52.04798],[7.64843,52.04851],[7.64879,52.04859],[7.64923,52.04901],[7.64917,52.04954],[7.64949,52.04972],[7.64936,52.05012],[7.6497,52.05011],[7.64986,52.05013],[7.64999,52.05015],[7.65014,52.05045],[7.64997,52.05053],[7.64987,52.05062],[7.64987,52.05081],[7.64941,52.05114],[7.64949,52.05144],[7.64897,52.05183],[7.6488,52.05212],[7.64882,52.05257],[7.64883,52.0527],[7.64888,52.05275],[7.64896,52.05286],[7.64914,52.05281],[7.64941,52.05278],[7.64954,52.05277],[7.64983,52.05277],[7.64987,52.05274],[7.65005,52.05275],[7.65056,52.0527],[7.65086,52.05267],[7.65089,52.05265],[7.65093,52.05267],[7.65116,52.05265],[7.65155,52.05257],[7.65183,52.0525],[7.65193,52.05245],[7.65222,52.05233],[7.65228,52.05229],[7.65232,52.05228],[7.65258,52.05215],[7.65279,52.05197],[7.65301,52.05173],[7.65315,52.05155],[7.65351,52.05138],[7.65361,52.05138],[7.65368,52.05139],[7.65383,52.05138],[7.65402,52.05141],[7.65443,52.0515],[7.65471,52.05153],[7.65497,52.05158],[7.65526,52.05155],[7.65622,52.05144],[7.65642,52.05144],[7.65665,52.05141],[7.65675,52.05135],[7.65703,52.05129],[7.65737,52.05122],[7.65759,52.05117],[7.65779,52.0511],[7.65787,52.0511],[7.65835,52.05102],[7.65846,52.05099],[7.65859,52.05097],[7.65867,52.05094],[7.6588,52.05091],[7.65907,52.05084],[7.65941,52.05069],[7.65944,52.05067],[7.65966,52.05049],[7.65969,52.05045],[7.6598,52.05032],[7.65981,52.05029],[7.65987,52.05027],[7.65993,52.05022],[7.66015,52.05007],[7.66018,52.05004],[7.66047,52.04994],[7.6606,52.04993],[7.66076,52.04989],[7.66103,52.04983],[7.66119,52.0498],[7.66147,52.04975],[7.66161,52.04973],[7.66197,52.04967],[7.66235,52.04959],[7.66251,52.04954],[7.66263,52.04951],[7.66319,52.04934],[7.66333,52.04929],[7.66337,52.04928],[7.66507,52.04873],[7.66622,52.04838],[7.66738,52.04802],[7.66787,52.04787],[7.66853,52.04765],[7.66897,52.04748],[7.66948,52.04724],[7.66987,52.04703],[7.6702,52.04684],[7.67052,52.04663],[7.67097,52.04629],[7.67148,52.04588],[7.67233,52.04518],[7.6727,52.04488],[7.67333,52.04436],[7.67393,52.04389],[7.67434,52.04359],[7.67533,52.04291],[7.67641,52.04233],[7.67726,52.0419],[7.67818,52.04146],[7.67843,52.04134],[7.67896,52.04106],[7.67993,52.04051],[7.68106,52.03974],[7.68157,52.03928],[7.68169,52.03913],[7.68176,52.039],[7.68183,52.03872],[7.68188,52.03847],[7.68189,52.03832],[7.68191,52.03811],[7.68187,52.03773],[7.68184,52.03747],[7.68184,52.03719],[7.68187,52.03693],[7.68192,52.03671],[7.68198,52.03648],[7.68211,52.03613],[7.68213,52.03609],[7.68218,52.03595],[7.68248,52.03534],[7.68265,52.03509],[7.68278,52.03493],[7.68288,52.03482],[7.68294,52.03476],[7.68302,52.03469],[7.68326,52.03452],[7.68395,52.03403],[7.68435,52.03378],[7.68482,52.03354],[7.68523,52.03334],[7.6855,52.03323],[7.68588,52.03309],[7.68643,52.03293],[7.68701,52.0328],[7.68757,52.0327],[7.68818,52.03262],[7.6888,52.03258],[7.68942,52.03256],[7.69004,52.03258],[7.69037,52.03261],[7.69069,52.03264],[7.69146,52.03276],[7.69177,52.03283],[7.69207,52.03291],[7.69234,52.03299],[7.69336,52.03331],[7.69386,52.03346],[7.69517,52.03385],[7.69573,52.03405],[7.69585,52.0341],[7.69649,52.03447],[7.69673,52.03464],[7.69686,52.03476],[7.69694,52.03484],[7.69721,52.03501],[7.69741,52.0351],[7.69783,52.03523],[7.69824,52.03528],[7.69864,52.03526],[7.69895,52.03523],[7.69938,52.03512],[7.69967,52.03508],[7.69985,52.03505],[7.70039,52.03487],[7.70066,52.03481],[7.70077,52.03479],[7.701,52.03473],[7.70121,52.03471],[7.70142,52.03469],[7.70178,52.03467],[7.70208,52.03464],[7.70237,52.03463],[7.70272,52.03464],[7.7031,52.03465],[7.70344,52.03462],[7.70383,52.03457],[7.70415,52.03453],[7.70424,52.03453],[7.70426,52.03453],[7.70434,52.03445],[7.70437,52.03439],[7.70444,52.03428],[7.70446,52.03426],[7.70459,52.03414],[7.70474,52.03407],[7.70502,52.03394],[7.70518,52.03389],[7.70543,52.03383],[7.70563,52.03383],[7.70595,52.03383],[7.7061,52.03379],[7.70628,52.03368],[7.70632,52.03361],[7.70632,52.03343],[7.70636,52.03329],[7.70618,52.03312],[7.70614,52.03305],[7.70615,52.03289],[7.70624,52.0328],[7.70638,52.03274],[7.70662,52.03268],[7.7067,52.0327],[7.70698,52.03272],[7.70719,52.03276],[7.70731,52.03279],[7.70742,52.03283],[7.70766,52.03289],[7.70805,52.033],[7.70825,52.03304],[7.70836,52.03305],[7.70878,52.0331],[7.70907,52.03312],[7.70952,52.03319],[7.70979,52.03327],[7.70988,52.03326],[7.71006,52.03328],[7.71034,52.03329],[7.71052,52.03333],[7.71082,52.03336],[7.71105,52.03342],[7.7112,52.03351],[7.71136,52.0337],[7.71147,52.03385],[7.71161,52.03402],[7.71183,52.03417],[7.71193,52.03422],[7.71204,52.03427],[7.71213,52.03431],[7.7123,52.03436],[7.7124,52.0344],[7.71276,52.03442],[7.71287,52.03441],[7.71294,52.03437],[7.71311,52.03422],[7.71341,52.03394],[7.71361,52.03378],[7.71384,52.0336],[7.71402,52.03347],[7.7141,52.03338],[7.71432,52.03327],[7.71463,52.03312],[7.71494,52.03303],[7.71506,52.03299],[7.71512,52.03297],[7.71542,52.03278],[7.71558,52.03271],[7.71576,52.03266],[7.71624,52.03259],[7.71647,52.03259],[7.71656,52.0326],[7.7167,52.03261],[7.71693,52.0327],[7.7171,52.03277],[7.71722,52.03284],[7.71774,52.03306],[7.7179,52.03309],[7.71806,52.03312],[7.71832,52.0331],[7.71846,52.03307],[7.71869,52.03304],[7.71895,52.03297],[7.71925,52.03287],[7.71959,52.03279],[7.71969,52.03277],[7.71985,52.03272],[7.72002,52.03266],[7.72026,52.03255],[7.72049,52.03246],[7.72066,52.03236],[7.72081,52.03226],[7.72088,52.0322],[7.72098,52.03208],[7.72103,52.03197],[7.72104,52.03186],[7.72101,52.03169],[7.72097,52.0316],[7.72093,52.03141],[7.72087,52.03118],[7.72082,52.03106],[7.72077,52.03094],[7.72067,52.03081],[7.72054,52.03069],[7.72041,52.03061],[7.72017,52.03053],[7.71992,52.03045],[7.71967,52.03037],[7.7195,52.03029],[7.71933,52.03021],[7.71919,52.03011],[7.71908,52.02998],[7.719,52.02983],[7.71897,52.02963],[7.71897,52.02946],[7.71897,52.0294],[7.71896,52.02928],[7.71891,52.02915],[7.71883,52.029],[7.71878,52.02892],[7.71879,52.02883],[7.71886,52.02872],[7.71899,52.02859],[7.71914,52.02848],[7.71929,52.0284],[7.71953,52.02829],[7.7197,52.0282],[7.71979,52.02814],[7.71982,52.02804],[7.71983,52.02788],[7.7198,52.02776],[7.71977,52.02766],[7.7197,52.02749],[7.71967,52.02739],[7.7197,52.02724],[7.71974,52.0271],[7.71983,52.02697],[7.71998,52.02681],[7.72018,52.02664],[7.72028,52.02654],[7.72036,52.02642],[7.7204,52.0263],[7.72041,52.02617],[7.72044,52.02606],[7.72051,52.02594],[7.72061,52.02583],[7.72076,52.02573],[7.72085,52.02568],[7.72108,52.02557],[7.72137,52.02546],[7.72163,52.02536],[7.72188,52.02528],[7.72203,52.02523],[7.72241,52.02509],[7.72268,52.02496],[7.72293,52.02484],[7.72321,52.02466],[7.72344,52.02453],[7.72387,52.02426],[7.72408,52.02409],[7.72434,52.02386],[7.72453,52.02367],[7.7247,52.02347],[7.72484,52.02326],[7.72497,52.02305],[7.72508,52.02284],[7.72544,52.02197],[7.72566,52.02151],[7.72576,52.02136],[7.72587,52.02122],[7.72603,52.02105],[7.72614,52.02095],[7.7263,52.02083],[7.72648,52.02071],[7.72669,52.02058],[7.72848,52.0195],[7.72877,52.0193],[7.72909,52.01901],[7.72934,52.01876],[7.7296,52.0184],[7.72972,52.0182],[7.72993,52.01774],[7.73007,52.01731],[7.73041,52.01647],[7.73091,52.01521],[7.73115,52.01452],[7.73133,52.01396],[7.73145,52.01358],[7.73157,52.01321],[7.73168,52.01306],[7.73174,52.01301],[7.73191,52.01289],[7.73206,52.01281],[7.73219,52.01277],[7.73241,52.01272],[7.73258,52.01269],[7.7337,52.01263],[7.73435,52.01261],[7.73484,52.01262],[7.7353,52.01263],[7.73552,52.01262],[7.73576,52.01256],[7.73587,52.01251],[7.7367,52.01208],[7.73744,52.0117],[7.73765,52.0116],[7.73746,52.01146],[7.7361,52.01165],[7.73564,52.01098],[7.73513,52.01028],[7.73495,52.01008],[7.73439,52.01039],[7.73433,52.01034],[7.73427,52.01037],[7.73315,52.00827],[7.7331,52.00821],[7.73305,52.008],[7.73285,52.00754],[7.73304,52.0074],[7.73317,52.00731],[7.73478,52.00614],[7.73501,52.0059],[7.73517,52.00558],[7.73523,52.00538],[7.73538,52.0045],[7.73543,52.00427],[7.73556,52.00403],[7.73571,52.0038],[7.73706,52.00235],[7.7375,52.00211],[7.73807,52.00149],[7.73811,52.00141],[7.73962,52.0014],[7.74007,52.00048],[7.74041,51.99977],[7.74068,51.99924],[7.74091,51.99879],[7.74104,51.99881],[7.74263,51.9985],[7.74414,51.99827],[7.74438,51.99868],[7.74743,51.99785],[7.74586,51.99654],[7.74616,51.9964],[7.74326,51.99399],[7.74333,51.99393],[7.74338,51.99375],[7.74322,51.99388],[7.74305,51.99366],[7.74228,51.99265],[7.74151,51.99165],[7.74063,51.99051],[7.7402,51.98994],[7.73988,51.9895],[7.73934,51.98882],[7.73928,51.98876],[7.73904,51.98846],[7.73891,51.98829],[7.7388,51.98813],[7.73869,51.98797],[7.73857,51.9878],[7.73848,51.98764],[7.73838,51.98747],[7.73828,51.9873],[7.73819,51.98714],[7.73814,51.98702],[7.73821,51.98697],[7.73825,51.9869],[7.73828,51.98683],[7.73827,51.98676],[7.73825,51.98669],[7.73819,51.98661],[7.73813,51.98656],[7.73805,51.98652],[7.73797,51.98649],[7.73788,51.98647],[7.73756,51.98662],[7.73752,51.98666],[7.73748,51.9867],[7.73746,51.98674],[7.73744,51.98678],[7.73743,51.98682],[7.73743,51.98687],[7.73744,51.98691],[7.73746,51.98695],[7.73232,51.98939],[7.73228,51.98902],[7.73221,51.98859],[7.73218,51.98846],[7.73198,51.98777],[7.7318,51.98725],[7.73178,51.98718],[7.73169,51.98707],[7.73165,51.98698],[7.73133,51.98635],[7.7313,51.98625],[7.73099,51.98563],[7.73062,51.98469],[7.7305,51.98438],[7.72998,51.9835],[7.72949,51.98284],[7.72917,51.98259],[7.72914,51.98256],[7.73185,51.98077],[7.73219,51.98056],[7.73225,51.98053],[7.73226,51.98044],[7.7327,51.97788],[7.73261,51.97396],[7.73326,51.97396],[7.73418,51.97396],[7.73421,51.97365],[7.73434,51.97297],[7.73434,51.97285],[7.73503,51.97281],[7.73463,51.97079],[7.7342,51.96882],[7.73411,51.96883],[7.734,51.96827],[7.73644,51.9664],[7.73955,51.96653],[7.73975,51.9665],[7.74287,51.96597],[7.74487,51.96562],[7.7448,51.96456],[7.74471,51.96274],[7.74468,51.96263],[7.74522,51.96258],[7.74498,51.96098],[7.74475,51.95941],[7.74625,51.95934],[7.7458,51.95829],[7.74575,51.95829],[7.74531,51.95723],[7.74513,51.95679],[7.74503,51.95654],[7.74409,51.95428],[7.74294,51.95411],[7.7403,51.95385],[7.73944,51.95372],[7.738,51.95364],[7.73654,51.95353],[7.73503,51.95333],[7.73503,51.95273],[7.73506,51.95267],[7.73681,51.9528],[7.73693,51.95277],[7.73694,51.95253],[7.73697,51.9521],[7.73546,51.95189],[7.73414,51.95157],[7.73338,51.95143],[7.73225,51.95121],[7.73163,51.95109],[7.73036,51.95083],[7.73022,51.95103],[7.73001,51.95136],[7.72979,51.95168],[7.7296,51.95196],[7.72952,51.95204],[7.72939,51.95205],[7.72911,51.95201],[7.72859,51.95176],[7.7286,51.95173],[7.7281,51.95161],[7.72719,51.95141],[7.72683,51.95132],[7.72661,51.95128],[7.72652,51.95132],[7.72652,51.95138],[7.72659,51.95154],[7.72664,51.95167],[7.72645,51.95181],[7.72644,51.95184],[7.72643,51.95199],[7.72642,51.95206],[7.72635,51.95211],[7.72627,51.95214],[7.72615,51.95215],[7.72605,51.95213],[7.72586,51.95198],[7.72576,51.95192],[7.72561,51.95189],[7.72543,51.9517],[7.72501,51.95152],[7.72418,51.95181],[7.7241,51.9518],[7.72408,51.95148],[7.72433,51.95123],[7.72426,51.95073],[7.72449,51.95035],[7.72458,51.95019],[7.72457,51.95013],[7.72447,51.95004],[7.72423,51.94989],[7.72397,51.94976],[7.72376,51.94959],[7.72362,51.94943],[7.72357,51.94924],[7.72361,51.94903],[7.72373,51.9487],[7.72386,51.94821],[7.72415,51.94819],[7.72415,51.94809],[7.72395,51.94709],[7.72374,51.94609],[7.72358,51.94552],[7.72362,51.9453],[7.7237,51.94519],[7.72323,51.94391],[7.72204,51.94084],[7.71923,51.94123],[7.71579,51.94172],[7.71494,51.94183],[7.71496,51.94157],[7.71331,51.94117],[7.71246,51.94095],[7.71011,51.94057],[7.71011,51.93989],[7.7101,51.93981],[7.70922,51.93989],[7.70915,51.93967],[7.70841,51.93974],[7.70645,51.93977],[7.70619,51.93984],[7.70554,51.94007],[7.70449,51.94044],[7.7041,51.94059],[7.70334,51.94089],[7.70184,51.94156],[7.70048,51.94221],[7.69883,51.943],[7.698,51.94333],[7.69761,51.94349],[7.69747,51.94353],[7.69638,51.94384],[7.69616,51.9439],[7.69483,51.94422],[7.69441,51.94434],[7.69341,51.94463],[7.69316,51.94471],[7.69301,51.94475],[7.69201,51.94509],[7.69156,51.94524],[7.69041,51.94565],[7.69004,51.94578],[7.68946,51.94598],[7.68888,51.94617],[7.68875,51.94622],[7.68774,51.94657],[7.68629,51.94568],[7.68541,51.94523],[7.6854,51.94516],[7.68547,51.94512],[7.68553,51.94504],[7.68552,51.94499],[7.68544,51.94494],[7.68534,51.94492],[7.68523,51.94492],[7.68515,51.94496],[7.68507,51.945],[7.68501,51.94502],[7.68495,51.94501],[7.68483,51.94497],[7.6847,51.94493],[7.68459,51.94492],[7.68438,51.9449],[7.68407,51.94487],[7.68354,51.94484],[7.68328,51.94482],[7.68293,51.94479],[7.68274,51.94477],[7.68263,51.94474],[7.68257,51.94473],[7.68252,51.94473],[7.68243,51.94475],[7.68229,51.94476],[7.68216,51.94474],[7.68206,51.94471],[7.68188,51.94459],[7.68179,51.94451],[7.68173,51.94444],[7.6817,51.94436],[7.68168,51.94426],[7.68164,51.94417],[7.68155,51.94412],[7.68144,51.9441],[7.6813,51.94413],[7.68121,51.94415],[7.68111,51.94414],[7.68098,51.9441],[7.68086,51.94405],[7.68074,51.94404],[7.68059,51.94404],[7.68048,51.94405],[7.68031,51.94404],[7.68011,51.94397],[7.6797,51.94383],[7.67927,51.94368],[7.67865,51.94351],[7.67837,51.94345],[7.6782,51.94345],[7.67804,51.94347],[7.67794,51.94349],[7.67766,51.9435],[7.67726,51.94351],[7.67657,51.94349],[7.67598,51.9435],[7.67572,51.9435],[7.67511,51.94342],[7.6747,51.9434],[7.67421,51.94337],[7.67374,51.94336],[7.67356,51.94337],[7.67334,51.94339],[7.67311,51.94345],[7.67293,51.94355],[7.67243,51.94385],[7.6723,51.94394],[7.67218,51.94404],[7.67204,51.94414],[7.67195,51.9442],[7.67184,51.94428],[7.67162,51.94458],[7.67153,51.94469],[7.67109,51.94484],[7.67056,51.94495],[7.67025,51.94494],[7.67023,51.94494],[7.66987,51.94491],[7.66953,51.94487],[7.66917,51.94481],[7.66872,51.94477],[7.66783,51.9447],[7.66699,51.94463],[7.66683,51.94464],[7.66681,51.94484],[7.66673,51.94532],[7.66665,51.9456],[7.66656,51.94575],[7.66642,51.94582],[7.6661,51.94586],[7.66512,51.94588],[7.665,51.94588],[7.66356,51.94593],[7.6622,51.94596],[7.66176,51.94596],[7.66156,51.94593],[7.66137,51.94588],[7.66116,51.94574],[7.66093,51.94557],[7.6606,51.94534],[7.66023,51.94508],[7.65989,51.94638],[7.65971,51.94706],[7.65958,51.94763],[7.65952,51.94808],[7.65947,51.94848],[7.65801,51.94849],[7.6574,51.94849],[7.65681,51.94849],[7.65608,51.9485],[7.65528,51.94851],[7.65519,51.94877],[7.65511,51.94898],[7.65505,51.94917],[7.65499,51.9493],[7.65493,51.9494],[7.65485,51.94955],[7.65482,51.94963],[7.65481,51.94968],[7.65476,51.94986],[7.65471,51.95029],[7.65497,51.95031],[7.65495,51.95046],[7.65495,51.95064],[7.65499,51.95078],[7.65505,51.95095],[7.65515,51.95117],[7.65526,51.9514],[7.65533,51.95154],[7.6549,51.95154],[7.65465,51.95154],[7.65412,51.95151],[7.65377,51.95148],[7.65321,51.9514],[7.6529,51.95138],[7.65222,51.95134],[7.65185,51.95129],[7.65165,51.95123],[7.65153,51.95116],[7.65142,51.95107],[7.65131,51.95103],[7.6512,51.95103],[7.65105,51.95107],[7.65066,51.9513],[7.65151,51.95188],[7.65231,51.95244],[7.65266,51.95266],[7.65364,51.9533],[7.65449,51.95385],[7.65477,51.95402],[7.655,51.95418],[7.65535,51.9544],[7.65546,51.95447],[7.65569,51.95462],[7.65644,51.9551],[7.65661,51.95521],[7.65691,51.95541],[7.65758,51.95585],[7.66001,51.95744],[7.66057,51.95782],[7.66076,51.95793],[7.66115,51.95822],[7.66288,51.95941],[7.66292,51.95943],[7.66304,51.95952],[7.66318,51.95967],[7.66415,51.96073],[7.66419,51.96083],[7.66429,51.96107],[7.66447,51.96151],[7.66472,51.96212],[7.66475,51.96259],[7.66476,51.96285],[7.66478,51.96321],[7.66462,51.96432],[7.66454,51.96488],[7.66437,51.96565],[7.66435,51.96574],[7.66422,51.96634],[7.6642,51.96648],[7.66395,51.96807],[7.66392,51.96826],[7.66385,51.96876],[7.66365,51.97005],[7.66358,51.97058],[7.66352,51.97091],[7.66342,51.97163],[7.66331,51.97202],[7.66299,51.97323],[7.66292,51.9735],[7.66291,51.97354],[7.66283,51.97384],[7.66281,51.97392],[7.66267,51.97443],[7.66249,51.97511],[7.66245,51.97526],[7.66242,51.9754],[7.66222,51.97629],[7.66208,51.97687],[7.66203,51.9771],[7.66192,51.97759],[7.66183,51.978],[7.66141,51.97986],[7.66102,51.98157],[7.66094,51.98194],[7.66079,51.98266],[7.66072,51.98299],[7.66046,51.98427],[7.66024,51.98617]]]}},{"type":"Feature","properties":{"name":"Südost","nr":"8"},"geometry":{"type":"Polygon","coordinates":[[[7.73433,51.89905],[7.73421,51.89909],[7.73419,51.89896],[7.72965,51.90026],[7.72142,51.90269],[7.7209,51.90323],[7.72056,51.90357],[7.72051,51.9038],[7.7205,51.90393],[7.72043,51.90435],[7.72035,51.90453],[7.71998,51.90463],[7.71999,51.90488],[7.71813,51.90512],[7.71301,51.90581],[7.71158,51.90601],[7.70945,51.90629],[7.70924,51.90624],[7.70917,51.9062],[7.70913,51.90618],[7.70907,51.90607],[7.70881,51.90536],[7.70758,51.90538],[7.70687,51.9054],[7.70631,51.90546],[7.70622,51.90547],[7.70608,51.90644],[7.70565,51.90641],[7.70453,51.90633],[7.70442,51.90632],[7.70441,51.90653],[7.7044,51.90662],[7.70442,51.90682],[7.70444,51.90699],[7.70449,51.90719],[7.70459,51.90748],[7.70465,51.90764],[7.70469,51.90774],[7.70472,51.90784],[7.7047,51.90784],[7.70461,51.90786],[7.70466,51.90803],[7.7046,51.90793],[7.70453,51.90784],[7.70445,51.90776],[7.7043,51.90766],[7.70409,51.90753],[7.70388,51.90741],[7.70377,51.90735],[7.70375,51.90733],[7.70371,51.90732],[7.70368,51.90729],[7.7034,51.90723],[7.7031,51.90718],[7.703,51.90718],[7.70264,51.90709],[7.70249,51.90708],[7.7024,51.90706],[7.7022,51.90696],[7.70211,51.90689],[7.70202,51.90686],[7.70184,51.90677],[7.70173,51.90667],[7.70168,51.90668],[7.70157,51.90677],[7.70156,51.90682],[7.70164,51.90685],[7.70171,51.9069],[7.70172,51.90693],[7.70168,51.90699],[7.70163,51.90702],[7.70145,51.90703],[7.70118,51.90705],[7.70104,51.90702],[7.701,51.90687],[7.70092,51.90679],[7.70075,51.90662],[7.70028,51.90647],[7.69957,51.90595],[7.69947,51.90576],[7.69938,51.90569],[7.69893,51.90551],[7.69877,51.90545],[7.69854,51.90537],[7.69844,51.90531],[7.69838,51.90529],[7.69823,51.90527],[7.69804,51.90525],[7.6978,51.90522],[7.69753,51.90517],[7.69718,51.90509],[7.69695,51.90501],[7.69678,51.90494],[7.69647,51.90479],[7.69624,51.9047],[7.69606,51.90465],[7.69583,51.90459],[7.69582,51.90461],[7.69576,51.90458],[7.6957,51.90456],[7.69558,51.90477],[7.69444,51.90668],[7.69402,51.90717],[7.69374,51.90741],[7.69327,51.90773],[7.69242,51.90826],[7.69166,51.90873],[7.69107,51.90906],[7.69081,51.90924],[7.6896,51.91003],[7.68934,51.9102],[7.68899,51.91001],[7.68751,51.90919],[7.68743,51.90915],[7.68732,51.90909],[7.68588,51.90828],[7.68547,51.90856],[7.6842,51.90943],[7.68309,51.91019],[7.68221,51.9108],[7.68197,51.91097],[7.68113,51.91155],[7.68071,51.91184],[7.67974,51.91259],[7.67835,51.91392],[7.6771,51.91502],[7.67582,51.91615],[7.67531,51.9166],[7.67522,51.91667],[7.6739,51.91784],[7.67361,51.91809],[7.67281,51.91807],[7.67237,51.91805],[7.67228,51.91805],[7.67186,51.91803],[7.67127,51.91795],[7.67082,51.91788],[7.67065,51.91785],[7.67024,51.91777],[7.66932,51.91747],[7.66934,51.91774],[7.66934,51.91798],[7.66926,51.91827],[7.66909,51.91863],[7.66894,51.91884],[7.66889,51.91907],[7.66898,51.91947],[7.66895,51.91979],[7.66353,51.91886],[7.65267,51.91699],[7.64908,51.91637],[7.648,51.91847],[7.64747,51.9195],[7.6466,51.9212],[7.64597,51.92229],[7.64533,51.92339],[7.64425,51.92525],[7.64421,51.92531],[7.6438,51.92607],[7.64302,51.92748],[7.64293,51.92765],[7.64278,51.92791],[7.64247,51.92845],[7.64148,51.93012],[7.64089,51.93099],[7.64001,51.93228],[7.63907,51.9339],[7.63894,51.93413],[7.63864,51.93464],[7.63816,51.93601],[7.63809,51.93671],[7.63806,51.93703],[7.63796,51.93794],[7.63809,51.93864],[7.63817,51.93908],[7.63826,51.93937],[7.63841,51.93985],[7.63848,51.94007],[7.63874,51.94061],[7.63914,51.94146],[7.6396,51.94207],[7.64032,51.94301],[7.64128,51.94399],[7.64184,51.9445],[7.64279,51.94539],[7.6435,51.94602],[7.64388,51.94635],[7.644,51.94646],[7.64473,51.94707],[7.64509,51.94735],[7.64519,51.94743],[7.64536,51.94757],[7.64595,51.94803],[7.64615,51.94816],[7.64726,51.94896],[7.64824,51.94963],[7.64961,51.95057],[7.65062,51.95127],[7.65066,51.9513],[7.65105,51.95107],[7.6512,51.95103],[7.65131,51.95103],[7.65142,51.95107],[7.65153,51.95116],[7.65165,51.95123],[7.65185,51.95129],[7.65222,51.95134],[7.6529,51.95138],[7.65321,51.9514],[7.65377,51.95148],[7.65412,51.95151],[7.65465,51.95154],[7.6549,51.95154],[7.65533,51.95154],[7.65526,51.9514],[7.65515,51.95117],[7.65505,51.95095],[7.65499,51.95078],[7.65495,51.95064],[7.65495,51.95046],[7.65497,51.95031],[7.65471,51.95029],[7.65476,51.94986],[7.65481,51.94968],[7.65482,51.94963],[7.65485,51.94955],[7.65493,51.9494],[7.65499,51.9493],[7.65505,51.94917],[7.65511,51.94898],[7.65519,51.94877],[7.65528,51.94851],[7.65608,51.9485],[7.65681,51.94849],[7.6574,51.94849],[7.65801,51.94849],[7.65947,51.94848],[7.65952,51.94808],[7.65958,51.94763],[7.65971,51.94706],[7.65989,51.94638],[7.66023,51.94508],[7.6606,51.94534],[7.66093,51.94557],[7.66116,51.94574],[7.66137,51.94588],[7.66156,51.94593],[7.66176,51.94596],[7.6622,51.94596],[7.66356,51.94593],[7.665,51.94588],[7.66512,51.94588],[7.6661,51.94586],[7.66642,51.94582],[7.66656,51.94575],[7.66665,51.9456],[7.66673,51.94532],[7.66681,51.94484],[7.66683,51.94464],[7.66699,51.94463],[7.66783,51.9447],[7.66872,51.94477],[7.66917,51.94481],[7.66953,51.94487],[7.66987,51.94491],[7.67023,51.94494],[7.67025,51.94494],[7.67056,51.94495],[7.67109,51.94484],[7.67153,51.94469],[7.67162,51.94458],[7.67184,51.94428],[7.67195,51.9442],[7.67204,51.94414],[7.67218,51.94404],[7.6723,51.94394],[7.67243,51.94385],[7.67293,51.94355],[7.67311,51.94345],[7.67334,51.94339],[7.67356,51.94337],[7.67374,51.94336],[7.67421,51.94337],[7.6747,51.9434],[7.67511,51.94342],[7.67572,51.9435],[7.67598,51.9435],[7.67657,51.94349],[7.67726,51.94351],[7.67766,51.9435],[7.67794,51.94349],[7.67804,51.94347],[7.6782,51.94345],[7.67837,51.94345],[7.67865,51.94351],[7.67927,51.94368],[7.6797,51.94383],[7.68011,51.94397],[7.68031,51.94404],[7.68048,51.94405],[7.68059,51.94404],[7.68074,51.94404],[7.68086,51.94405],[7.68098,51.9441],[7.68111,51.94414],[7.68121,51.94415],[7.6813,51.94413],[7.68144,51.9441],[7.68155,51.94412],[7.68164,51.94417],[7.68168,51.94426],[7.6817,51.94436],[7.68173,51.94444],[7.68179,51.94451],[7.68188,51.94459],[7.68206,51.94471],[7.68216,51.94474],[7.68229,51.94476],[7.68243,51.94475],[7.68252,51.94473],[7.68257,51.94473],[7.68263,51.94474],[7.68274,51.94477],[7.68293,51.94479],[7.68328,51.94482],[7.68354,51.94484],[7.68407,51.94487],[7.68438,51.9449],[7.68459,51.94492],[7.6847,51.94493],[7.68483,51.94497],[7.68495,51.94501],[7.68501,51.94502],[7.68507,51.945],[7.68515,51.94496],[7.68523,51.94492],[7.68534,51.94492],[7.68544,51.94494],[7.68552,51.94499],[7.68553,51.94504],[7.68547,51.94512],[7.6854,51.94516],[7.68541,51.94523],[7.68629,51.94568],[7.68774,51.94657],[7.68875,51.94622],[7.68888,51.94617],[7.68946,51.94598],[7.69004,51.94578],[7.69041,51.94565],[7.69156,51.94524],[7.69201,51.94509],[7.69301,51.94475],[7.69316,51.94471],[7.69341,51.94463],[7.69441,51.94434],[7.69483,51.94422],[7.69616,51.9439],[7.69638,51.94384],[7.69747,51.94353],[7.69761,51.94349],[7.698,51.94333],[7.69883,51.943],[7.70048,51.94221],[7.70184,51.94156],[7.70334,51.94089],[7.7041,51.94059],[7.70449,51.94044],[7.70554,51.94007],[7.70619,51.93984],[7.70645,51.93977],[7.70841,51.93974],[7.70915,51.93967],[7.70922,51.93989],[7.7101,51.93981],[7.71011,51.93989],[7.71011,51.94057],[7.71246,51.94095],[7.71331,51.94117],[7.71496,51.94157],[7.71494,51.94183],[7.71579,51.94172],[7.71923,51.94123],[7.72204,51.94084],[7.72323,51.94391],[7.7237,51.94519],[7.72362,51.9453],[7.72358,51.94552],[7.72374,51.94609],[7.72395,51.94709],[7.72415,51.94809],[7.72415,51.94819],[7.72386,51.94821],[7.72373,51.9487],[7.72361,51.94903],[7.72357,51.94924],[7.72362,51.94943],[7.72376,51.94959],[7.72397,51.94976],[7.72423,51.94989],[7.72447,51.95004],[7.72457,51.95013],[7.72458,51.95019],[7.72449,51.95035],[7.72426,51.95073],[7.72433,51.95123],[7.72408,51.95148],[7.7241,51.9518],[7.72418,51.95181],[7.72501,51.95152],[7.72543,51.9517],[7.72561,51.95189],[7.72576,51.95192],[7.72586,51.95198],[7.72605,51.95213],[7.72615,51.95215],[7.72627,51.95214],[7.72635,51.95211],[7.72642,51.95206],[7.72643,51.95199],[7.72644,51.95184],[7.72645,51.95181],[7.72664,51.95167],[7.72659,51.95154],[7.72652,51.95138],[7.72652,51.95132],[7.72661,51.95128],[7.72683,51.95132],[7.72719,51.95141],[7.7281,51.95161],[7.7286,51.95173],[7.72859,51.95176],[7.72911,51.95201],[7.72939,51.95205],[7.72952,51.95204],[7.7296,51.95196],[7.72979,51.95168],[7.73001,51.95136],[7.73022,51.95103],[7.73036,51.95083],[7.73163,51.95109],[7.73225,51.95121],[7.73338,51.95143],[7.73414,51.95157],[7.73546,51.95189],[7.73697,51.9521],[7.73694,51.95253],[7.73693,51.95277],[7.73681,51.9528],[7.73506,51.95267],[7.73503,51.95273],[7.73503,51.95333],[7.73654,51.95353],[7.738,51.95364],[7.73944,51.95372],[7.7403,51.95385],[7.74294,51.95411],[7.74409,51.95428],[7.74503,51.95654],[7.74513,51.95679],[7.74617,51.95679],[7.74792,51.9568],[7.74792,51.95673],[7.74853,51.95515],[7.74863,51.95488],[7.7487,51.95485],[7.74872,51.95472],[7.74866,51.95452],[7.7474,51.95254],[7.74726,51.95218],[7.7472,51.95184],[7.74719,51.95173],[7.74708,51.95139],[7.747,51.95131],[7.74696,51.95129],[7.74701,51.95117],[7.74693,51.95091],[7.74682,51.95057],[7.74675,51.95032],[7.7466,51.94998],[7.74658,51.94985],[7.7465,51.94961],[7.7464,51.94946],[7.74635,51.94938],[7.74582,51.94879],[7.74548,51.94842],[7.74512,51.94804],[7.74516,51.94791],[7.74527,51.94775],[7.74537,51.94754],[7.7454,51.94745],[7.74541,51.9474],[7.74551,51.94723],[7.74568,51.94699],[7.74575,51.94693],[7.74593,51.94629],[7.74589,51.94615],[7.7459,51.9461],[7.74629,51.94596],[7.74646,51.94592],[7.74673,51.94584],[7.74714,51.94572],[7.7474,51.94567],[7.74767,51.94563],[7.74794,51.94559],[7.74815,51.94557],[7.74824,51.9455],[7.74841,51.94536],[7.74854,51.94521],[7.74859,51.94513],[7.74861,51.94502],[7.74866,51.94499],[7.74875,51.94499],[7.74888,51.94497],[7.74885,51.94482],[7.74873,51.94444],[7.74871,51.9443],[7.7488,51.94429],[7.74911,51.94432],[7.74941,51.94435],[7.74969,51.94437],[7.75007,51.94441],[7.75026,51.94443],[7.75036,51.94446],[7.75038,51.94442],[7.75043,51.94438],[7.75044,51.94435],[7.75099,51.94438],[7.75099,51.94427],[7.75098,51.9438],[7.75093,51.94362],[7.75096,51.94331],[7.75098,51.94307],[7.75102,51.94279],[7.75106,51.9425],[7.75111,51.94229],[7.75113,51.94222],[7.75088,51.94218],[7.75056,51.94212],[7.7502,51.94208],[7.75016,51.94206],[7.75021,51.94141],[7.75016,51.9407],[7.75008,51.94045],[7.74991,51.94049],[7.74979,51.94052],[7.74965,51.94053],[7.74953,51.9405],[7.74944,51.94044],[7.74918,51.94024],[7.74877,51.93991],[7.7488,51.93986],[7.74882,51.93982],[7.74887,51.93977],[7.74895,51.93974],[7.74946,51.93965],[7.75044,51.93945],[7.75103,51.93934],[7.75129,51.9393],[7.75173,51.93923],[7.75187,51.93922],[7.75296,51.93937],[7.75299,51.93937],[7.75305,51.93944],[7.75312,51.93958],[7.75314,51.93976],[7.75315,51.9399],[7.75316,51.94008],[7.75315,51.94038],[7.75317,51.94047],[7.75318,51.94067],[7.75348,51.94068],[7.75361,51.9407],[7.75372,51.94074],[7.75426,51.94102],[7.75443,51.9411],[7.75516,51.94137],[7.75531,51.94142],[7.75564,51.9415],[7.75589,51.94153],[7.7567,51.94162],[7.75804,51.94175],[7.75847,51.94178],[7.75863,51.94176],[7.75875,51.94171],[7.75883,51.94165],[7.75933,51.9412],[7.75942,51.9411],[7.75951,51.94098],[7.75956,51.94085],[7.75957,51.94074],[7.75952,51.94065],[7.7594,51.94049],[7.75932,51.94049],[7.75926,51.94048],[7.7592,51.94046],[7.75916,51.94043],[7.7589,51.94024],[7.75879,51.94018],[7.7587,51.94013],[7.75835,51.94],[7.75819,51.93995],[7.75812,51.93991],[7.75821,51.93951],[7.75821,51.93902],[7.75801,51.93827],[7.75799,51.93814],[7.75795,51.93811],[7.75791,51.9381],[7.75776,51.93807],[7.75761,51.93808],[7.75777,51.93791],[7.75792,51.93783],[7.75817,51.93773],[7.75832,51.93768],[7.75865,51.9376],[7.75909,51.93754],[7.75941,51.93747],[7.7594,51.93745],[7.75974,51.93764],[7.7598,51.93766],[7.76008,51.93746],[7.76036,51.9374],[7.76045,51.93736],[7.7605,51.93733],[7.76055,51.93728],[7.76067,51.93724],[7.76074,51.93725],[7.76088,51.93731],[7.76092,51.93731],[7.761,51.9373],[7.76105,51.93728],[7.76118,51.93723],[7.76132,51.93715],[7.76137,51.93714],[7.76157,51.93714],[7.76168,51.93713],[7.7618,51.9371],[7.76194,51.93701],[7.762,51.937],[7.76207,51.937],[7.76217,51.93698],[7.76584,51.93597],[7.76569,51.93627],[7.76584,51.93627],[7.76874,51.9303],[7.76861,51.93027],[7.76957,51.9283],[7.76954,51.92824],[7.76951,51.92818],[7.76962,51.92817],[7.7697,51.92813],[7.7698,51.92805],[7.77122,51.92684],[7.77214,51.92605],[7.77217,51.92602],[7.77429,51.92422],[7.77356,51.92392],[7.77341,51.92374],[7.77342,51.92353],[7.77342,51.92334],[7.77346,51.92325],[7.77341,51.92313],[7.77341,51.92299],[7.7734,51.92282],[7.77359,51.92277],[7.77437,51.92217],[7.77332,51.92129],[7.77356,51.92122],[7.77377,51.92108],[7.77376,51.92105],[7.77378,51.92098],[7.77382,51.9205],[7.77389,51.9202],[7.77305,51.92016],[7.77276,51.92013],[7.77299,51.9196],[7.77151,51.91939],[7.7715,51.91938],[7.77135,51.91946],[7.77074,51.91986],[7.77073,51.91986],[7.77066,51.91972],[7.77063,51.91971],[7.7706,51.9197],[7.77046,51.91971],[7.77014,51.91975],[7.76966,51.91976],[7.76939,51.91974],[7.76921,51.91973],[7.76917,51.91971],[7.76913,51.91969],[7.76913,51.91959],[7.76918,51.91944],[7.7692,51.91934],[7.76919,51.91926],[7.76915,51.91923],[7.76911,51.91922],[7.76899,51.9192],[7.76878,51.91918],[7.76849,51.91917],[7.76834,51.91917],[7.76799,51.91915],[7.76777,51.91912],[7.7677,51.91907],[7.76764,51.919],[7.76756,51.91891],[7.76762,51.9188],[7.76765,51.91855],[7.76765,51.91844],[7.76776,51.91811],[7.76797,51.91769],[7.768,51.91748],[7.76797,51.91741],[7.76796,51.91708],[7.768,51.91649],[7.76798,51.91644],[7.76799,51.91632],[7.76808,51.91632],[7.76809,51.91575],[7.76806,51.91533],[7.76756,51.91526],[7.76744,51.91525],[7.76727,51.91527],[7.76701,51.91538],[7.76644,51.91555],[7.76603,51.91569],[7.76603,51.91555],[7.7661,51.91545],[7.76631,51.91502],[7.76639,51.91476],[7.76585,51.91478],[7.76561,51.91383],[7.76561,51.91382],[7.76559,51.91369],[7.76478,51.91375],[7.76378,51.91382],[7.7636,51.91075],[7.7636,51.91073],[7.75713,51.91153],[7.75689,51.91156],[7.75675,51.91157],[7.7567,51.91155],[7.75672,51.91154],[7.7585,51.90956],[7.7586,51.90948],[7.75875,51.9093],[7.75884,51.90919],[7.75921,51.909],[7.75931,51.90895],[7.76028,51.90863],[7.76145,51.90831],[7.76144,51.90829],[7.76033,51.90671],[7.76034,51.9067],[7.76121,51.9048],[7.75958,51.90292],[7.75965,51.90275],[7.76006,51.90171],[7.76028,51.90103],[7.76027,51.9008],[7.75991,51.89989],[7.75935,51.89887],[7.75897,51.89848],[7.75871,51.89824],[7.75848,51.89805],[7.7581,51.89785],[7.75791,51.89773],[7.75775,51.89769],[7.75565,51.89768],[7.7543,51.89766],[7.75281,51.89774],[7.75266,51.89776],[7.75136,51.8978],[7.75089,51.89784],[7.75062,51.89789],[7.74983,51.8983],[7.7491,51.89864],[7.74851,51.89886],[7.74772,51.89908],[7.74727,51.89919],[7.74693,51.89929],[7.74663,51.89936],[7.74644,51.89942],[7.74602,51.89952],[7.74542,51.89967],[7.74488,51.89979],[7.74445,51.89987],[7.74364,51.90001],[7.74363,51.9],[7.74255,51.89671],[7.74255,51.8967],[7.7344,51.89902],[7.73433,51.89905]]]}},{"type":"Feature","properties":{"name":"Hiltrup","nr":"9"},"geometry":{"type":"Polygon","coordinates":[[[7.64908,51.91637],[7.65267,51.91699],[7.66353,51.91886],[7.66895,51.91979],[7.66898,51.91947],[7.66889,51.91907],[7.66894,51.91884],[7.66909,51.91863],[7.66926,51.91827],[7.66934,51.91798],[7.66934,51.91774],[7.66932,51.91747],[7.67024,51.91777],[7.67065,51.91785],[7.67082,51.91788],[7.67127,51.91795],[7.67186,51.91803],[7.67228,51.91805],[7.67237,51.91805],[7.67281,51.91807],[7.67361,51.91809],[7.6739,51.91784],[7.67522,51.91667],[7.67531,51.9166],[7.67582,51.91615],[7.6771,51.91502],[7.67835,51.91392],[7.67974,51.91259],[7.68071,51.91184],[7.68113,51.91155],[7.68197,51.91097],[7.68221,51.9108],[7.68309,51.91019],[7.6842,51.90943],[7.68547,51.90856],[7.68588,51.90828],[7.68732,51.90909],[7.68743,51.90915],[7.68751,51.90919],[7.68899,51.91001],[7.68934,51.9102],[7.6896,51.91003],[7.69081,51.90924],[7.69107,51.90906],[7.69166,51.90873],[7.69242,51.90826],[7.69327,51.90773],[7.69374,51.90741],[7.69402,51.90717],[7.69444,51.90668],[7.69558,51.90477],[7.6957,51.90456],[7.69568,51.90456],[7.69559,51.90458],[7.69563,51.9045],[7.69443,51.90413],[7.69398,51.90394],[7.69402,51.90392],[7.69334,51.90362],[7.69334,51.90364],[7.69323,51.9036],[7.69257,51.90345],[7.69212,51.90339],[7.69214,51.90336],[7.69105,51.90319],[7.69104,51.90322],[7.68912,51.90293],[7.68907,51.90292],[7.68905,51.9029],[7.6891,51.90281],[7.68909,51.90275],[7.68904,51.90273],[7.68888,51.90273],[7.6884,51.90261],[7.68822,51.9025],[7.68831,51.90247],[7.68829,51.90241],[7.68823,51.90239],[7.68795,51.90244],[7.68765,51.90249],[7.68763,51.90248],[7.68749,51.90248],[7.68727,51.90244],[7.68703,51.9024],[7.68699,51.90238],[7.68688,51.90216],[7.68688,51.90208],[7.68688,51.90206],[7.68687,51.90197],[7.68681,51.90189],[7.68684,51.90188],[7.68695,51.90189],[7.68744,51.90193],[7.68782,51.90196],[7.6879,51.90191],[7.68794,51.90189],[7.68799,51.9018],[7.68819,51.90113],[7.68907,51.9013],[7.68933,51.90132],[7.68949,51.90132],[7.68954,51.9013],[7.68974,51.90126],[7.68973,51.90094],[7.68959,51.89827],[7.68918,51.89699],[7.6892,51.8969],[7.68915,51.89682],[7.68919,51.89673],[7.68928,51.89662],[7.68945,51.89652],[7.68973,51.89637],[7.68997,51.89607],[7.69003,51.89579],[7.69002,51.89572],[7.68995,51.89563],[7.68984,51.89547],[7.68981,51.89545],[7.68978,51.89538],[7.68978,51.89517],[7.68995,51.89484],[7.69012,51.89465],[7.69023,51.89458],[7.69055,51.89434],[7.69078,51.89415],[7.69113,51.89382],[7.69183,51.89302],[7.69159,51.89301],[7.69131,51.89295],[7.69104,51.89285],[7.69057,51.8904],[7.69041,51.89042],[7.69031,51.8904],[7.69014,51.89033],[7.69013,51.89033],[7.68989,51.89012],[7.68992,51.88996],[7.68978,51.88976],[7.68965,51.88937],[7.68951,51.88913],[7.68937,51.88896],[7.68922,51.88886],[7.6891,51.88879],[7.68869,51.88847],[7.68863,51.8884],[7.68898,51.88826],[7.68945,51.888],[7.68995,51.88777],[7.69014,51.8876],[7.69029,51.88743],[7.69041,51.88737],[7.69044,51.88726],[7.69045,51.88714],[7.69089,51.88652],[7.69102,51.88638],[7.69115,51.8863],[7.69129,51.88629],[7.69159,51.88617],[7.69191,51.88601],[7.6925,51.88579],[7.69272,51.88567],[7.69279,51.88558],[7.69306,51.88544],[7.69348,51.88544],[7.69419,51.88573],[7.69446,51.88586],[7.69511,51.88603],[7.69509,51.88608],[7.69493,51.88639],[7.69469,51.88679],[7.69461,51.88688],[7.69461,51.88692],[7.6947,51.88698],[7.69492,51.88712],[7.6951,51.88726],[7.6953,51.88738],[7.69542,51.88747],[7.69553,51.88755],[7.69558,51.88758],[7.69588,51.88757],[7.69643,51.88744],[7.69667,51.88735],[7.69672,51.88735],[7.69676,51.88731],[7.69681,51.88732],[7.69691,51.88736],[7.70689,51.8813],[7.70696,51.88117],[7.70958,51.87663],[7.71,51.87542],[7.708,51.87518],[7.70441,51.87243],[7.70416,51.87255],[7.70411,51.87251],[7.6997,51.86907],[7.69697,51.87047],[7.69337,51.87234],[7.68204,51.87608],[7.68205,51.87609],[7.68003,51.87718],[7.67882,51.8769],[7.67757,51.87661],[7.67698,51.87649],[7.67635,51.87645],[7.67554,51.87633],[7.67542,51.87632],[7.67525,51.87632],[7.67464,51.87639],[7.67358,51.87648],[7.67272,51.87649],[7.67158,51.87649],[7.66951,51.87668],[7.66923,51.87662],[7.66917,51.87661],[7.66898,51.87657],[7.66894,51.87658],[7.6686,51.87665],[7.66827,51.87673],[7.66819,51.87674],[7.66804,51.87674],[7.66757,51.87672],[7.66746,51.87671],[7.66744,51.87688],[7.66689,51.87686],[7.66654,51.87687],[7.66624,51.87686],[7.66579,51.8769],[7.66536,51.87696],[7.66455,51.87704],[7.66434,51.87706],[7.66434,51.87707],[7.66433,51.87715],[7.66439,51.8774],[7.66438,51.8774],[7.66417,51.87744],[7.66383,51.8775],[7.66363,51.87753],[7.66339,51.87752],[7.66324,51.87747],[7.66311,51.87741],[7.66299,51.87739],[7.66292,51.87742],[7.66283,51.87748],[7.66273,51.87751],[7.66263,51.87756],[7.66248,51.87758],[7.66212,51.87759],[7.66192,51.87758],[7.66178,51.87757],[7.66151,51.8776],[7.66144,51.8776],[7.6596,51.87806],[7.65949,51.87809],[7.65876,51.87828],[7.65846,51.87841],[7.6582,51.87847],[7.65805,51.87848],[7.65792,51.87844],[7.65773,51.87836],[7.65754,51.87843],[7.65737,51.87847],[7.65735,51.87846],[7.65732,51.87842],[7.6572,51.8784],[7.6569,51.87821],[7.65647,51.87809],[7.65628,51.87805],[7.65613,51.87803],[7.65602,51.87798],[7.65339,51.87665],[7.65321,51.87656],[7.65264,51.87705],[7.65201,51.87762],[7.6511,51.87843],[7.65083,51.87867],[7.65079,51.87871],[7.65077,51.8787],[7.65089,51.87843],[7.6508,51.87828],[7.65058,51.87802],[7.6505,51.87791],[7.65043,51.87779],[7.65028,51.87764],[7.6501,51.87754],[7.64994,51.87748],[7.64968,51.87726],[7.6495,51.87712],[7.6494,51.87704],[7.64914,51.87681],[7.64911,51.87679],[7.64882,51.87635],[7.64857,51.87596],[7.64844,51.87576],[7.6482,51.87538],[7.64799,51.87511],[7.64712,51.87394],[7.64685,51.87362],[7.64695,51.87358],[7.64673,51.87335],[7.64666,51.87325],[7.64658,51.87318],[7.6465,51.87306],[7.64643,51.87298],[7.64628,51.87276],[7.64604,51.87251],[7.64594,51.87242],[7.64565,51.87222],[7.64549,51.87208],[7.64506,51.8718],[7.64483,51.87166],[7.6446,51.87153],[7.64455,51.8715],[7.64393,51.87114],[7.64343,51.87085],[7.6419,51.86996],[7.63961,51.86885],[7.63925,51.86864],[7.63865,51.86835],[7.63721,51.86761],[7.64093,51.86644],[7.64259,51.86595],[7.64351,51.86567],[7.64424,51.86545],[7.64513,51.86519],[7.64648,51.86477],[7.64733,51.8644],[7.64741,51.86432],[7.64743,51.86425],[7.64741,51.86402],[7.64741,51.86362],[7.64741,51.86337],[7.64735,51.86308],[7.64733,51.86291],[7.64735,51.86235],[7.64735,51.86172],[7.64732,51.86155],[7.64715,51.86095],[7.64718,51.86088],[7.64719,51.86085],[7.64666,51.86075],[7.64646,51.86073],[7.64605,51.8606],[7.6458,51.86056],[7.64531,51.86048],[7.64511,51.86046],[7.64481,51.86039],[7.64448,51.86034],[7.6443,51.86029],[7.64418,51.86021],[7.64399,51.86009],[7.64383,51.85994],[7.64363,51.85967],[7.64322,51.85981],[7.6429,51.85996],[7.64282,51.86001],[7.64261,51.8601],[7.64247,51.86012],[7.64193,51.86019],[7.64166,51.86018],[7.64149,51.86017],[7.64131,51.86018],[7.6412,51.8602],[7.64085,51.86025],[7.64061,51.86028],[7.64052,51.86031],[7.64051,51.86029],[7.64044,51.859],[7.64047,51.85845],[7.64042,51.85787],[7.64034,51.85786],[7.64009,51.85716],[7.63956,51.85699],[7.63067,51.85393],[7.63067,51.85381],[7.6275,51.85451],[7.62745,51.85454],[7.62208,51.85707],[7.62194,51.85712],[7.62179,51.85712],[7.61606,51.8568],[7.61604,51.85642],[7.61591,51.85475],[7.61589,51.85462],[7.61575,51.85373],[7.61563,51.85284],[7.61559,51.85257],[7.6155,51.85194],[7.61538,51.85105],[7.61529,51.85039],[7.61526,51.8503],[7.61496,51.84958],[7.61484,51.84927],[7.61448,51.8484],[7.61375,51.84666],[7.61356,51.84619],[7.61272,51.84419],[7.61467,51.84409],[7.61565,51.84424],[7.61671,51.8429],[7.61422,51.84173],[7.61322,51.84077],[7.61315,51.84071],[7.61305,51.84065],[7.61271,51.84057],[7.61216,51.84044],[7.6121,51.84043],[7.61203,51.84042],[7.61189,51.84039],[7.61188,51.84038],[7.61184,51.84038],[7.61179,51.84037],[7.61175,51.84036],[7.61166,51.84033],[7.61146,51.8403],[7.61137,51.84029],[7.61136,51.8403],[7.61135,51.8403],[7.611,51.84021],[7.61085,51.84019],[7.61065,51.84014],[7.61033,51.84017],[7.61026,51.84019],[7.60981,51.84036],[7.6094,51.84051],[7.60924,51.84064],[7.60893,51.84057],[7.60814,51.84062],[7.60725,51.84098],[7.6066,51.84095],[7.60624,51.84099],[7.60599,51.84112],[7.60602,51.84119],[7.60639,51.84187],[7.60648,51.84196],[7.60658,51.84202],[7.60657,51.84205],[7.60636,51.84203],[7.60611,51.84203],[7.60523,51.84212],[7.60461,51.84216],[7.60413,51.84219],[7.60343,51.84224],[7.6027,51.84228],[7.60214,51.8424],[7.60195,51.84246],[7.60181,51.84249],[7.60174,51.84249],[7.60148,51.84251],[7.60086,51.84255],[7.59984,51.84262],[7.5986,51.84268],[7.60056,51.84523],[7.60148,51.84635],[7.6015,51.84712],[7.60131,51.84735],[7.60006,51.84764],[7.60012,51.84774],[7.60007,51.84773],[7.60001,51.84773],[7.59814,51.84813],[7.59626,51.84854],[7.59421,51.84733],[7.59128,51.84671],[7.59145,51.84636],[7.59147,51.84631],[7.59165,51.84596],[7.58813,51.84515],[7.58492,51.8444],[7.58469,51.84487],[7.58467,51.84488],[7.58473,51.84496],[7.58484,51.84506],[7.58498,51.84529],[7.5851,51.8457],[7.58507,51.84573],[7.58485,51.84579],[7.58403,51.84604],[7.58335,51.84626],[7.58278,51.84643],[7.58223,51.84655],[7.58212,51.84657],[7.58179,51.84657],[7.58131,51.84664],[7.58077,51.84688],[7.58039,51.84692],[7.57963,51.8467],[7.57926,51.84666],[7.57889,51.84663],[7.57848,51.84665],[7.57792,51.84688],[7.57699,51.84769],[7.57653,51.84836],[7.5765,51.84847],[7.57627,51.84875],[7.57623,51.84916],[7.57574,51.84983],[7.57559,51.85004],[7.57541,51.85019],[7.5752,51.85023],[7.57501,51.8504],[7.57469,51.8506],[7.57463,51.85111],[7.57419,51.85149],[7.57396,51.85154],[7.57363,51.85127],[7.57329,51.85084],[7.57297,51.85041],[7.57281,51.84973],[7.57263,51.84956],[7.5724,51.84932],[7.57224,51.84921],[7.57197,51.84904],[7.57183,51.84894],[7.5711,51.84845],[7.5704,51.84791],[7.56912,51.84891],[7.56942,51.84907],[7.56955,51.84915],[7.56961,51.84929],[7.56951,51.84959],[7.56942,51.84967],[7.56939,51.84978],[7.56942,51.84994],[7.56952,51.85011],[7.56954,51.85027],[7.56958,51.85039],[7.56982,51.8505],[7.57015,51.85055],[7.57044,51.85062],[7.57058,51.85075],[7.57077,51.85086],[7.5711,51.851],[7.57147,51.85114],[7.57157,51.85124],[7.57162,51.85135],[7.57161,51.85142],[7.57162,51.85151],[7.57168,51.8516],[7.57179,51.85196],[7.57188,51.85204],[7.57194,51.85216],[7.57187,51.85226],[7.57191,51.85245],[7.57188,51.85255],[7.57175,51.85274],[7.57175,51.85283],[7.57166,51.85311],[7.57183,51.85328],[7.57191,51.85338],[7.57197,51.85353],[7.57199,51.85358],[7.57211,51.8538],[7.572,51.85397],[7.57209,51.85413],[7.57206,51.85413],[7.56003,51.85409],[7.55754,51.85564],[7.5641,51.86015],[7.56404,51.86018],[7.56067,51.86205],[7.56267,51.86338],[7.56269,51.86337],[7.56457,51.86462],[7.56426,51.86474],[7.5635,51.86534],[7.56295,51.86573],[7.5626,51.86594],[7.56225,51.86614],[7.56202,51.86627],[7.56181,51.86637],[7.56177,51.86633],[7.56162,51.86614],[7.56147,51.86593],[7.5611,51.86546],[7.56098,51.86535],[7.56086,51.86527],[7.56057,51.86522],[7.55977,51.86495],[7.55968,51.86495],[7.55912,51.86543],[7.55885,51.86536],[7.55874,51.86555],[7.55871,51.86567],[7.55807,51.8663],[7.55791,51.86647],[7.55782,51.86656],[7.5578,51.86659],[7.55773,51.86659],[7.55702,51.86726],[7.55646,51.86777],[7.55633,51.8679],[7.55593,51.86826],[7.55588,51.86832],[7.55585,51.86846],[7.5558,51.86891],[7.5558,51.86914],[7.55584,51.86921],[7.55584,51.86928],[7.5558,51.8694],[7.55582,51.8695],[7.55575,51.86965],[7.55572,51.87002],[7.5557,51.8703],[7.55566,51.87037],[7.5535,51.86973],[7.55244,51.86942],[7.55189,51.86929],[7.5513,51.86909],[7.55065,51.86889],[7.54969,51.86861],[7.54951,51.86846],[7.54927,51.86845],[7.54923,51.86853],[7.54932,51.86872],[7.54928,51.86884],[7.54962,51.86916],[7.54933,51.86915],[7.54924,51.86915],[7.54924,51.86914],[7.54876,51.86925],[7.54817,51.86941],[7.54711,51.8697],[7.54679,51.86981],[7.54685,51.8699],[7.54677,51.87117],[7.54677,51.87118],[7.54676,51.87335],[7.54676,51.8736],[7.54676,51.87529],[7.54676,51.8753],[7.54669,51.87532],[7.54579,51.87513],[7.54534,51.87594],[7.54626,51.87617],[7.54625,51.87619],[7.54552,51.87694],[7.54549,51.87697],[7.54544,51.87696],[7.54468,51.87775],[7.54473,51.87775],[7.54465,51.878],[7.54474,51.87808],[7.54656,51.88065],[7.5466,51.88074],[7.54657,51.88083],[7.54643,51.88111],[7.54642,51.88114],[7.54607,51.8812],[7.54589,51.88121],[7.54572,51.88118],[7.54343,51.88068],[7.54339,51.88072],[7.54237,51.88252],[7.54155,51.88453],[7.53886,51.88411],[7.53776,51.88386],[7.53774,51.88389],[7.53591,51.88632],[7.53583,51.8863],[7.53534,51.88696],[7.5353,51.88702],[7.53564,51.88704],[7.53512,51.88828],[7.53509,51.88834],[7.53506,51.8884],[7.5347,51.88967],[7.53455,51.8908],[7.53457,51.8917],[7.53468,51.89217],[7.53514,51.89219],[7.53543,51.89238],[7.53546,51.89336],[7.53554,51.89414],[7.53525,51.8946],[7.53526,51.89464],[7.53509,51.89472],[7.53507,51.89473],[7.53501,51.89546],[7.5349,51.89648],[7.53479,51.89698],[7.53478,51.89725],[7.53494,51.89727],[7.535,51.89766],[7.535,51.8977],[7.53437,51.89773],[7.53463,51.89884],[7.53514,51.89881],[7.53518,51.89905],[7.53515,51.89948],[7.5352,51.8997],[7.53521,51.89989],[7.53531,51.90102],[7.53531,51.90128],[7.53532,51.90163],[7.53513,51.90169],[7.53497,51.90176],[7.53478,51.90189],[7.53475,51.90195],[7.5347,51.90206],[7.53465,51.90217],[7.5349,51.90227],[7.53586,51.90274],[7.53988,51.90471],[7.54034,51.90493],[7.54056,51.90502],[7.54077,51.90509],[7.54113,51.90522],[7.54149,51.90535],[7.54191,51.90551],[7.54349,51.90617],[7.54427,51.90648],[7.54453,51.90657],[7.54464,51.90662],[7.54446,51.90678],[7.54494,51.90718],[7.54532,51.90751],[7.54552,51.90767],[7.54599,51.90813],[7.54655,51.90841],[7.54685,51.90852],[7.5471,51.90864],[7.54767,51.90895],[7.54905,51.90965],[7.55037,51.91032],[7.5507,51.91046],[7.5508,51.9105],[7.5512,51.91064],[7.55143,51.91074],[7.5517,51.91087],[7.55193,51.91097],[7.55227,51.91109],[7.55294,51.91144],[7.55326,51.91161],[7.5534,51.91167],[7.55578,51.91265],[7.55553,51.91312],[7.55606,51.91346],[7.55686,51.91369],[7.55762,51.91378],[7.558,51.91386],[7.5585,51.91407],[7.55879,51.91419],[7.55966,51.91483],[7.56045,51.91541],[7.56113,51.91545],[7.56366,51.91556],[7.56451,51.91559],[7.56699,51.91567],[7.56807,51.9157],[7.56921,51.91572],[7.57047,51.91575],[7.571,51.91577],[7.57245,51.91583],[7.57462,51.91594],[7.57577,51.91604],[7.57662,51.9161],[7.57689,51.91613],[7.57711,51.91615],[7.57963,51.91649],[7.58026,51.91657],[7.58094,51.91666],[7.58099,51.91667],[7.58504,51.91772],[7.58765,51.91876],[7.58787,51.91887],[7.58798,51.91893],[7.5888,51.91934],[7.59013,51.92015],[7.59069,51.92053],[7.59072,51.92054],[7.59106,51.9208],[7.59225,51.92178],[7.59289,51.9224],[7.59315,51.9227],[7.59344,51.92305],[7.59418,51.92404],[7.59473,51.92487],[7.59529,51.92476],[7.59584,51.92468],[7.59625,51.92463],[7.59659,51.92462],[7.59775,51.92456],[7.5987,51.9245],[7.59873,51.9246],[7.59913,51.92455],[7.5994,51.92452],[7.60062,51.92443],[7.60092,51.92441],[7.60165,51.92436],[7.60228,51.92432],[7.60303,51.92426],[7.6034,51.92423],[7.60399,51.92419],[7.60387,51.92391],[7.60364,51.92338],[7.60351,51.92307],[7.60319,51.9223],[7.60318,51.92227],[7.60348,51.92218],[7.60361,51.92213],[7.60375,51.92209],[7.60445,51.92185],[7.60659,51.92114],[7.60727,51.92091],[7.60776,51.92074],[7.60825,51.9206],[7.60832,51.92077],[7.60859,51.92119],[7.6091,51.9219],[7.60957,51.92243],[7.60969,51.92257],[7.61024,51.92312],[7.61102,51.92379],[7.61199,51.92447],[7.61241,51.92473],[7.61278,51.92497],[7.61347,51.92539],[7.61371,51.92554],[7.61425,51.92587],[7.61437,51.92594],[7.61487,51.92626],[7.6152,51.92647],[7.61579,51.92683],[7.61717,51.92769],[7.6187,51.92863],[7.61933,51.92902],[7.61947,51.9291],[7.62075,51.9299],[7.62146,51.93032],[7.6221,51.93071],[7.62279,51.93112],[7.6241,51.9319],[7.62483,51.93228],[7.62565,51.93271],[7.62588,51.93282],[7.62625,51.93299],[7.62699,51.93331],[7.62785,51.93368],[7.62798,51.93374],[7.62907,51.93432],[7.63004,51.93497],[7.63053,51.93538],[7.63095,51.93574],[7.63157,51.93637],[7.63188,51.93672],[7.63211,51.937],[7.63263,51.93785],[7.63446,51.93817],[7.63503,51.93828],[7.63544,51.93839],[7.63569,51.93846],[7.63587,51.9385],[7.63647,51.9387],[7.63689,51.93885],[7.63719,51.93896],[7.63747,51.93908],[7.63788,51.93923],[7.63826,51.93937],[7.63817,51.93908],[7.63809,51.93864],[7.63796,51.93794],[7.63806,51.93703],[7.63809,51.93671],[7.63816,51.93601],[7.63864,51.93464],[7.63894,51.93413],[7.63907,51.9339],[7.64001,51.93228],[7.64089,51.93099],[7.64148,51.93012],[7.64247,51.92845],[7.64278,51.92791],[7.64293,51.92765],[7.64302,51.92748],[7.6438,51.92607],[7.64421,51.92531],[7.64425,51.92525],[7.64533,51.92339],[7.64597,51.92229],[7.6466,51.9212],[7.64747,51.9195],[7.648,51.91847],[7.64908,51.91637]]]}}]}
